id,name,ruby,site,address,label,education,course,tel,lat,lng,near,course1,course2,course3,course4,course5,course6
0,アサンプション国際高等学校,あさんぷしょんこくさいこうとうがっこう,https://www.assumption.ed.jp/jsh/,大阪府箕面市如意谷1-13-23,私立,共学校,普通科,072-721-3080,34.836591,135.478682,阪急箕面線「箕面」徒歩約15分／阪急千里線「北千里」からスクールバス／北大阪急行・大阪モノレール「千里中央」から阪急バス「如意谷住宅前」下車徒歩約2分・「第二中学校口」下車徒歩約5分,普通科,,,,,
1,アナン学園高等学校,あなんがくえんこうとうがっこう,https://www.anangakuen.ed.jp/,大阪府東大阪市若江西新町3-1-8,私立,共学校,看護科（5年一貫教育）、調理科,06-6723-5511,34.656545,135.596929,近鉄奈良線「八戸野ノ里」南東徒歩約15分,看護科（5年一貫教育）,調理科,,,,
2,あべの翔学高等学校,あべのしょうまなぶこうとうがっこう,http://www.abeno-shogaku.ed.jp,大阪府大阪市阿倍野区天王寺町南2-8-19,私立,共学校,普通科,06-6719-2801,34.642423,135.525329,近鉄南大阪線「河堀口」180ｍ／JR阪和線「美章園」600ｍ／JR環状線「寺田町」700ｍ,普通科,,,,,
3,上宮高等学校,うえみやこうとうがっこう,http://www.uenomiya.ed.jp,大阪府大阪市天王寺区上之宮町9-36,私立,共学校,普通科,06-6771-5701,34.661188,135.519676,大阪メトロ谷町線・千日前線「谷町九丁目」徒歩10分／JR大阪環状線「桃谷」徒歩12分／近鉄「大阪上本町」徒歩6分／大阪市バス62号系統「上本町八丁目」下車徒歩2分,普通科,,,,,
4,上宮太子高等学校,うえのみやたいしこうとうがっこう,http://www.uenomiya-taishi.ed.jp,大阪府大阪府南河内郡太子町太子1053,私立,共学校,普通科,0721-98-3611,34.51615,135.637405,近鉄長野線「喜志」・近鉄南大阪線「上ノ太子」・JR大和路線「高井田」・近鉄大阪線「河内国分」・南海高野線「金剛」からスクールバス,普通科,,,,,
5,ヴェリタス城星学園高等学校,う゛ぇりたすじょうせいがくえんこうとうがっこう,http://www.josei.ed.jp/,大阪府大阪市中央区玉造2-23-26,私立,女子校,普通科,06-6941-5977,34.678156,135.527971,JR環状線「玉造」・「森ノ宮」徒歩約10分／大阪メトロ「玉造」徒歩約6分／大阪メトロ「森ノ宮」徒歩約10分／大阪市バス「玉造二丁目」下車徒歩約3分,普通科,,,,,
6,英真学園高等学校,えいしんがくえんこうとうがっこう,http://www.eishingakuen.ac.jp,大阪府大阪市淀川区十三東5-4-38,私立,共学校,普通科,06-6303-2181,34.723726,135.483438,阪急「十三」東口徒歩5分,普通科,,,,,
7,英風高等学校,えいふうこうとうがっこう,https://eifu.ed.jp/,大阪府大阪市福島区吉野4-13-4,私立,女子校,通信制,0120-8120-78,34.688457,135.471624,JR環状線「野田」徒歩約3分／JR東西線「海老江」徒歩約13分／大阪メトロ千日前線「玉川」徒歩約5分／阪神本線「野田」徒歩約13分,通信制,,,,,
8,追手門学院高等学校,おうてもんがくいんこうとうがっこう,https://www.otemon-jh.ed.jp,大阪府茨木市太田東芝町1-1,私立,共学校,普通科,072-697-8185,34.838221,135.577174,JR京都線「総持寺」徒歩15分／阪急京都線「総持寺」徒歩25分／阪急京都線「茨木市」から近鉄バス「追大総持寺キャンパス前」・「追手門学院中・高前」下車すぐ,普通科,,,,,
9,追手門学院大手前高等学校,おうてもんがくいんおおてまえこうとうがっこう,https://www.otemon-js.ed.jp/,大阪府大阪市中央区大手前1-3-20,私立,共学校,普通科,06-6942-2235,34.689318,135.520704,京阪本線・大阪メトロ谷町線「天満橋」徒歩5分／JR東西線「大阪城北詰」徒歩10分,普通科,,,,,
10,大阪高等学校,おおさかこうとうがっこう,http://www.osakashs.ed.jp/,大阪府大阪市東淀川区相川2-18-51,私立,共学校,普通科,06-6340-3031,34.759083,135.534953,阪急京都線「相川」徒歩すぐ／JR京都線「吹田」下車徒歩15分／大阪メトロ今里筋線「井高野」徒歩12分,普通科,,,,,
11,大阪偕星学園高等学校,おおさかかいせいがくえんこうとうがっこう,http://www.osaka-kaisei.ac.jp,大阪府大阪市生野区勝山南2-6-38,私立,共学校,普通科,06-6716-0003,34.65255,135.530172,JR大阪環状線「桃谷」「寺田町」徒歩10分,普通科,,,,,
12,大阪学院大学高等学校,おおさかがくいんだいがくこうとうがっこう,http://www.ogu-h.ed.jp/,大阪府吹田市岸辺南2-6-1,私立,共学校,普通科,06-6381-6661,34.774764,135.54137,JR京都線「岸辺」徒歩2分／阪急京都線「正雀」徒歩7分,普通科,,,,,
13,大阪学芸高等学校,おおさかがくげいこうとうがっこう,https://www.osakagakugei.ac.jp/senior/,大阪府大阪市住吉区長居1-4-15,私立,共学校,普通科,06-6693-6301,34.61537,135.512123,JR阪和線「長居」徒歩6分、JR阪和線「鶴ヶ丘」徒歩8分、大阪メトロ御堂筋線「長居」徒歩7分、大阪メトロ御堂筋線「西田辺」徒歩10分,普通科,,,,,
14,大阪暁光高等学校,おおさかぎょうこうこうとうがっこう,https://www.osakagyoko.ed.jp/,大阪府河内長野市楠町西1090,私立,共学校,看護科、看護専攻科、普通科,0721-53-5281,34.470816,135.561096,南海高野線「千代田」北西徒歩8分,看護科,看護専攻科,普通科,,,
15,大阪薫英女学院高等学校,おおさかくんえいじょがくいんこうとうがっこう,https://www.kun-ei.jp/,大阪府摂津市正雀1-4-1,私立,女子校,国際科、普通科,06-6381-5381,34.778372,135.549926,阪急京都線「正雀」徒歩5分／JR「岸辺」徒歩10分／大阪モノレール「摂津」徒歩15分,国際科,普通科,,,,
16,大阪国際高等学校,おおさかこくさいこうとうがっこう,https://www.kokusai-h.oiu.ed.jp,大阪府守口市松下町1-28,私立,共学校,普通科,06-6992-5931,34.72952,135.56767,京阪「土居」徒歩8分・京阪「守口」徒歩10分・今里筋線「清水」徒歩12分・谷町線「太子橋今市」徒歩14分・大阪シティバス「滝井」徒歩7分,普通科,,,,,
17,大阪金剛インターナショナル高等学校,おおさかこんごういんたーなしょなるこうとうがっこう,http://www.kongogakuen.ed.jp,大阪府大阪市住之江区南港北2-6-10,私立,共学校,普通科,06-4703-1780,34.639535,135.407342,大阪メトロ中央線「コスモスクエア」徒歩15分／ニュートラム「トレードセンター前」徒歩7分,普通科,,,,,
18,大阪産業大学附属高等学校,おおさかさんぎょうだいがくふぞくこうとうがっこう,http://www.osaka-sandai.ed.jp/,大阪府大阪市城東区古市1-20-26,私立,共学校,国際科、普通科,06-6939-1491,34.708851,135.558921,大阪メトロ長堀鶴見緑地線「今福鶴見」徒歩7分／大阪メトロ今里筋線「新森古市」徒歩7分／京阪本線「関目」徒歩15分／大阪市シティバス86号系統「鶴見六丁目」下車すぐ,国際科,普通科,,,,
19,大阪商業大学高等学校,おおさかしょうぎょうだいがくこうとうがっこう,http://www.daishodai-h.ed.jp,大阪府東大阪市御厨栄町4-1-10,私立,共学校,普通科,06-6781-3050,34.666876,135.585732,近鉄奈良線「八戸ノ里」徒歩4分・「河内小阪」北東徒歩8分／大阪メトロ中央線「長田」徒歩20分／JR学研都市線「徳庵」からバス「商業大学前」・「鴻池新田」からバス「商業大学前」下車すぐ,普通科,,,,,
20,大阪商業大学堺高等学校,おおさかしょうぎょうだいがくさかいこうとうがっこう,http://www.shodaisakai.ac.jp,大阪府堺市中区堀上町358,私立,共学校,普通科,072-278-2252,34.528067,135.48699,JR「津久野」からバス「八田寺公園前」または「堀上」下車すぐ／泉北高速鉄道「深井」下車徒歩15分,普通科,,,,,
21,大阪女学院高等学校,おおさかじょがくいんこうとうがっこう,http://www.osaka-jogakuin.ed.jp,大阪府大阪市中央区玉造2-26-54,私立,女子校,英語科、普通科,06-6761-4113,34.675871,135.527667,大阪メトロ長堀鶴見緑地線「玉造」1番出口西徒歩3分／JR環状線「玉造」西500ｍ／大阪メトロ中央線「森ノ宮」南西700ｍ／大阪市バス「清水谷高校前」下車北100ｍ,英語科,普通科,,,,
22,大阪信愛学院高等学校,おおさかしんあいがくいんこうとうがっこう,http://www.osaka-shinai.ac.jp,大阪府大阪市城東区古市2-7-30,私立,共学校,普通科,06-6939-4391,34.711171,135.557762,京阪本線「関目」徒歩15分、大阪メトロ長堀鶴見緑地線「今福鶴見」徒歩15分、大阪メトロ谷町線「関目高殿」徒歩18分、大阪メトロ今里筋線「新森古市」徒歩5分,普通科,,,,,
23,大阪成蹊女子高等学校,おおさかせいけいじょしこうとうがっこう,http://high.osaka-seikei.ac.jp,大阪府大阪市東淀川区相川3-10-62,私立,女子校,美術科、普通科,06-6829-2510,34.759108,135.537472,阪急京都線「相川」東徒歩約4分／大阪メトロ今里筋線・JR京都線「吹田」からスクールバス,美術科,普通科,,,,
24,大阪星光学院高等学校,おおさかせいこうがくいんこうとうがっこう,http://www.osakaseiko.ac.jp/,大阪府大阪市天王寺区伶人町1-6,私立,男子校,普通科,06-6771-0737,34.656462,135.513337,大阪メトロ谷町線「四天王寺前夕陽丘」徒歩2分,普通科,,,,,
25,大阪青凌高等学校,おおさかせいりょうこうとうがっこう,https://www.osakaseiryo.jp/,大阪府三島郡島本町若山台1-1-1,私立,共学校,普通科,075-754-7771,34.886652,135.660496,JR京都線「島本」徒歩10分／阪急京都線「水無瀬」徒歩15分,普通科,,,,,
26,大阪体育大学浪商高等学校,おおさかたいいくだいがくなみしょうこうとうがっこう,http://www.ouhs-school.jp/,大阪府大阪府泉南郡熊取町朝代台1-1,私立,共学校,普通科,072-453-7001,34.380295,135.357242,JR阪和線「熊取」から南海バス「浪商学園前」下車／南海本線「泉佐野」から南海バス「浪商学園前」下車,普通科,,,,,
27,大阪つくば開成高等学校,おおさかつくばかいせいこうとうがっこう,http://otk.ed.jp/,大阪府大阪市北区天満2-2-16,私立,共学校,通信制,06-6352-0020,34.692333,135.516339,京阪・大阪メトロ谷町線「天満橋」徒歩4分／JR東西線「大阪天満宮」・大阪メトロ堺筋線「南森町」JR2番出口徒歩9分,通信制,,,,,
28,大阪電気通信大学高等学校,おおさかでんきつうしんだいがくこうとうがっこう,http://www.dentsu.ed.jp/,大阪府守口市橋波西之町1-5-18,私立,共学校,工学科、普通科,06-6992-6261,34.737075,135.571421,京阪電車「守口市」徒歩10分／京阪電車「西三荘」徒歩6分／大阪モノレール・京阪電車「門真市」徒歩16分／大阪メトロ谷町線「守口」徒歩10分,工学科,普通科,,,,
29,大阪桐蔭高等学校,おおさかとういんこうとうがっこう,http://www.osakatoin.ed.jp,大阪府大東市中垣内3-1-1,私立,共学校,普通科,072-870-1001,34.707958,135.645655,JR学研都市線「野崎」徒歩18分・「住道」からシャトルバス／近鉄けいはんな線「新石切」から近鉄バス「産業大学前」下車すぐ,普通科,,,,,
30,大阪夕陽丘学園高等学校,おおさかゆうひがおかがくえんこうとうがっこう,http://www.oyg.ed.jp,大阪府大阪市天王寺区生玉寺町7-72,私立,共学校,普通科,06-6771-9510,34.659836,135.5135,大阪メトロ谷町線「四天王寺前夕陽ヶ丘」徒歩3分／南海「なんば」徒歩12分／近鉄「大阪上本町」徒歩12分／JR「天王寺」徒歩20分,普通科,,,,,
31,大阪緑涼高等学校,おおさかりょくりょうこうとうがっこう,http://www.osakaryokuryo.ed.jp/,大阪府藤井寺市春日丘3-8-1,私立,共学校,普通科,072-955-0718,34.569304,135.589559,近鉄南大阪線「藤井寺」徒歩5分,普通科,,,,,
32,大谷高等学校,おおたにこうとうがっこう,http://www.osk-ohtani.ed.jp,大阪府大阪市阿倍野区共立通2-8-4,私立,女子校,普通科,06-6661-8400,34.638967,135.506219,大阪メトロ谷町線「阿倍野」徒歩8分／JR環状線・阪和線「天王寺」・近鉄南大阪線「あべの橋」・大阪メトロ御堂筋線「天王寺」徒歩17分／南海本線・高野線・大阪メトロ堺筋線「天下茶屋」徒歩15分／阪堺線「松虫」徒歩7分,普通科,,,,,
33,開明高等学校,かいめいこうとうがっこう,https://www.kaimei.ed.jp/,大阪府大阪市城東区野江1-9-9,私立,共学校,普通科,06-6932-4461,34.700955,135.537813,大阪メトロ谷町線「野江内代」、大阪メトロ長堀鶴見緑地線・今里筋線「蒲生四丁目」、京阪本線「野江」、JRおおさか東線「JR野江」徒歩12分,普通科,,,,,
34,香ヶ丘リベルテ高等学校,かおりがおかりべるてこうとうがっこう,http://www.liberte.ed.jp,大阪府堺市堺区浅香山町1-2-20,私立,女子校,普通科,072-238-7881,34.584265,135.497418,JR阪和線「浅香」徒歩5分／南海高野線「浅香山」徒歩12分／大阪メトロ御堂筋線「北花田」からバス「愛泉学園前」下車,普通科,,,,,
35,関西大倉高等学校,かんさいおおくらこうとうがっこう,http://www.kankura.jp,大阪府茨木市室山2-14-1,私立,共学校,普通科,072-643-6321,34.848608,135.542071,JR「茨木」／阪急「茨木市」「北千里」「石橋阪大前」／北大阪急行・大阪モノレール「千里中央」からスクールバス,普通科,,,,,
36,関西創価高等学校,かんさいそうかこうとうがっこう,http://www.kansai.soka.ed.jp,大阪府交野市寺3-20-1,私立,共学校,普通科,072-891-0011,34.78444,135.697268,JR学研都市線「河内磐船」徒歩20分・京阪交野線「河内森」徒歩20分,普通科,,,,,
37,関西大学高等部,かんさいだいがくこうとうぶ,https://www.kansai-u.ac.jp/senior/,大阪府大阪府高槻市白梅町7-1,私立,共学校,普通科,072-684-4327,34.85493,135.622635,JR京都線「高槻」徒歩7分／阪急京都線「高槻市」徒歩10分,普通科,,,,,
38,関西大学第一高等学校,かんさいだいがくだいいちこうとうがっこう,http://www.kansai-u.ac.jp/dai-ichi/high/,大阪府吹田市山手町3-3-24,私立,共学校,普通科,06-6337-7750,34.770101,135.509064,阪急千里線「関大前」南徒歩3分,普通科,,,,,
39,関西大学北陽高等学校,かんさいだいがくほくようこうとうがっこう,http://www.kansai-u.ac.jp/hokuyo/,大阪府大阪市東淀川区上新庄1-3-26,私立,共学校,普通科,06-6328-5964,34.746032,135.529435,阪急京都線「上新庄」徒歩8分／阪急千里線「下新庄」徒歩13分／JRおおさか東線「JR淡路」徒歩15分,普通科,,,,,
40,関西福祉科学大学高等学校,かんさいふくしかがくだいがくこうとうがっこう,http://www.hs.fuksi-kagk-u.ac.jp,大阪府柏原市旭ｹ丘3-11-1,私立,共学校,普通科,072-976-1112,34.558183,135.635669,近鉄大阪線「河内国分」徒歩12分・「大阪教育大前」徒歩10分／近鉄南大阪線「古市」からスクールバス約20分／JR大和路線「高井田」徒歩20分・スクールバス10分,普通科,,,,,
41,関西学院千里国際高等学校,かんせいがくいんせんりこくさいこうとうがっこう,http://www.senri.ed.jp,大阪府箕面市小野原西4-4-16,私立,共学校,普通科,072-727-5050,34.829667,135.508757,阪急千里線「北千里」から阪急バス15分／北大阪急行・大阪モノレール「千里中央」から阪急バス25分,普通科,,,,,
42,近畿大阪高等学校,きんきおおさかこうとうがっこう,https://koutoku.ac.jp/kinkiosaka/,大阪府阪南市箱作1054-1,私立,共学校,通信制,072-447-4761,34.340875,135.211104,南海本線「箱作駅」徒歩5分,通信制,,,,,
43,近畿大学泉州高等学校,きんきだいがくせんしゅうこうとうがっこう,http://www.kindai-sensyu.ed.jp/,大阪府岸和田市内畑町3558,私立,共学校,普通科,072-479-1231,34.419175,135.432807,近鉄長野線「岸和田」・JR阪和線「久米田」から南海バス「沢峯」下車徒歩10分,普通科,,,,,
44,近畿大学附属高等学校,きんきだいがくふぞくこうとうがっこう,http://www.jsh.kindai.ac.jp,大阪府東大阪市若江西新町5-3-1,私立,共学校,普通科,06-6722-1261,34.650821,135.595028,近鉄大阪線「長瀬」徒歩約20分／近鉄奈良線「八戸ノ里」南徒歩約20分・近大シャトルバス／京阪「門真市」・大阪モノレール「門真市」・大阪メトロ「門真南」・JR「鴻池新田」からスクールバス,普通科,,,,,
45,金蘭会高等学校,きんらんかいこうとうがっこう,http://www.kinran.ed.jp,大阪府大阪市北区大淀南3-3-7,私立,女子校,普通科,06-6453-0281,34.701394,135.483659,JR環状線「福島」徒歩8分／JR東西線「新福島」徒歩10分／阪神「福島」徒歩10分／京阪「中之島」徒歩20分／JR「大阪」・阪急「十三」からバス「福島7丁目前」下車,普通科,,,,,
46,金蘭千里高等学校,きんらんせんりこうとうがっこう,http://www.kinransenri.ed.jp,大阪府吹田市藤白台5-25-2,私立,共学校,普通科,06-6872-0263,34.825771,135.515399,阪急千里線「北千里」北東徒歩10分／北大阪急行・大阪モノレール「千里中央」から阪急バス「金蘭会学園前」下車すぐ,普通科,,,,,
47,建国高等学校,けんこくこうとうがっこう,http://www.keonguk.ac.jp,大阪府大阪市住吉区遠里小野2-3-13,私立,共学校,普通科,06-6691-1231,34.597526,135.499706,JR阪和線「杉本町」西北徒歩7分／南海高野線「我孫子前」東南徒歩7分／大阪市バス「山之内1丁目」下車南50ｍ,普通科,,,,,
48,賢明学院高等学校,けんめいがくいんこうとうがっこう,https://kenmei.jp,大阪府堺市堺区霞ｹ丘町4-3-30,私立,共学校,普通科,072-241-1679,34.552995,135.467781,JR阪和線「上野芝」徒歩13分／南海高野線「堺東」から南海バス「霞ケ丘」「南陵通一丁」下車徒歩3分,普通科,,,,,
49,賢明学院高等学校,けんめいがくいんこうとうがっこう,https://kenmei.jp/correspondencecourse/,大阪府堺市堺区霞ｹ丘町4-3-30,私立,共学校,通信制,072-241-2111,34.552995,135.467781,JR阪和線「上野芝」徒歩13分／南海高野線「堺東」から南海バス「霞ケ丘」「南陵通一丁」下車徒歩3分,通信制,,,,,
50,興國高等学校,こうこくこうとうがっこう,http://www.kokoku.ed.jp/,大阪府大阪市天王寺区寺田町1-4-26,私立,男子校,ITビジネス科、普通科,06-6779-8151,34.652518,135.521625,JR環状線「寺田町」徒歩7分,ITビジネス科,普通科,,,,
51,神須学園高等学校,こうずがくえんこうとうがっこう,https://www.kozu-gakuen.ed.jp/,大阪府岸和田市野田町1-7-12,私立,共学校,通信制,072-493-3977,34.459455,135.378183,南海本線「岸和田」徒歩2分,通信制,,,,,
52,好文学園女子高等学校,こうぶんがくえんじょしこうとうがっこう,https://koubun.ed.jp/,大阪府大阪市西淀川区千舟3-8-22,私立,女子校,普通科,06-6472-2281,34.710151,135.448501,JR東西線「御幣島」徒歩約12分／阪神本線「千船」徒歩約6分／阪神なんば線「出来島」徒歩約15分,普通科,,,,,
53,向陽台高等学校,こうようだいこうとうがっこう,http://www.koyodai.ed.jp,大阪府茨木市宿久庄7-20-1,私立,共学校,通信制,072-643-6681,34.846013,135.528846,モノレール「彩都西」徒歩10分／JR「茨木」・阪急「茨木市」「北千里」「石橋」・モノレール「千里中央」各駅よりスクールバス,通信制,,,,,
54,香里ヌヴェール学院高等学校,こうりぬう゛ぇーるがくいんこうとうがっこう,http://www.seibo.ed.jp/nevers-hs/,大阪府寝屋川市美井町18-10,私立,共学校,普通科,072-831-8452,34.780951,135.636215,京阪「香里園」徒歩8分,普通科,,,,,
55,金光大阪高等学校,こんこうおおさかこうとうがっこう,http://www.kohs.ed.jp/,大阪府高槻市東上牧1-3-1,私立,共学校,普通科,072-669-5211,34.868881,135.663318,阪急京都線「上牧」南徒歩3分／JR京都線「島本」徒歩18分,普通科,,,,,
56,金光藤蔭高等学校,こんこうとういんこうとうがっこう,http://www.konkoutouin.ed.jp,大阪府大阪市生野区小路東4-1-26,私立,共学校,普通科,06-6751-2461,34.65736,135.556561,大阪メトロ千日前線「小路」5分／近鉄大阪線「布施」15分,普通科,,,,,
57,金光八尾高等学校,こんこうやおこうとうがっこう,http://www.konkoyao.ed.jp,大阪府八尾市柏村町1-63,私立,共学校,普通科,072-922-9162,34.61365,135.622572,近鉄大阪線「高安」南西徒歩10分・「恩智」北西徒歩7分,普通科,,,,,
58,堺リベラル高等学校,さかいりべらるこうとうがっこう,http://www.liberal.ed.jp/,大阪府大阪府堺市堺区浅香山町1-2-20,私立,女子校,表現教育科,072-275-7688,34.584265,135.497418,JR阪和線「堺市」徒歩10分／南海高野線「浅香山」徒歩12分／大阪メトロ御堂筋線「北花田」からバス「愛泉学園前」下車,表現教育科,,,,,
59,四條畷学園高等学校,しじょうなわてがくえんこうとうがっこう,http://jh.shijonawate-gakuen.ac.jp/,大阪府大東市学園町6-45,私立,共学校,普通科,072-876-1327,34.731062,135.640507,JR学研都市線「四条畷」徒歩1分,普通科,,,,,
60,四天王寺高等学校,してんのうじこうとうがっこう,http://www.shitennoji.ac.jp,大阪府大阪市天王寺区四天王寺1-11-73,私立,女子校,普通科,06-6772-6201,34.65464,135.514515,JR「天王寺」北徒歩10分／大阪メトロ谷町線「四天王寺前夕陽ケ丘」4番出口南徒歩5分,普通科,,,,,
61,四天王寺東高等学校,してんのうじひがしこうとうがっこう,http://www.shitennojigakuen.ed.jp/sgjh/,大阪府大阪府藤井寺市春日丘3-1-78,私立,共学校,普通科,072-937-2855,34.570921,135.591023,近鉄南大阪線「藤井寺」下車3分,普通科,,,,,
62,秋桜高等学校,しゅうおうこうとうがっこう,https://www.shuoh.ed.jp/index.html,大阪府貝塚市新町2-10,私立,共学校,通信制,072-432-6007,34.443573,135.354306,南海本線「貝塚」南西徒歩5分,通信制,,,,,
63,樟蔭高等学校,しょういんこうとうがっこう,http://www.osaka-shoin.ac.jp/hs,大阪府東大阪市菱屋西4-2-26,私立,女子校,普通科,06-6723-8185,34.662615,135.577783,近鉄奈良線「河内小阪」徒歩3分／JRおおさか東線「河内永和」徒歩5分,普通科,,,,,
64,常翔学園高等学校,じょうしょうがくえんこうとうがっこう,http://www.highs.josho.ac.jp/,大阪府大阪市旭区大宮5-16-1,私立,共学校,普通科,06-6954-4436,34.730993,135.545466,大阪メトロ谷町線「千林大宮」、大阪メトロ谷町線・今里筋線「太子橋今市」徒歩12分／京阪本線「千林」・「滝井」徒歩20分,普通科,,,,,
65,常翔啓光学園高等学校,じょうしょうけいこうがくえんこうとうがっこう,https://www.keiko.josho.ac.jp,大阪府枚方市禁野本町1-13-21,私立,共学校,普通科,072-807-6632,34.817686,135.657025,京阪本線「枚方市」徒歩約13分・京阪本線「宮ノ阪」徒歩7分,普通科,,,,,
66,城南学園高等学校,じょうなんがくえんこうとうがっこう,http://www.jonan.ac.jp/chuko,大阪府大阪市東住吉区照ｹ丘矢田2-14-10,私立,女子校,普通科,06-6702-9784,34.607923,135.537971,近鉄南大阪線「矢田」北東約600ｍ／大阪メトロ谷町線「喜連瓜破」西約1．1ｋｍ／大阪メトロ御堂筋線「長居」・JR阪和線「長居」から大阪市バス「湯里6丁目」下車すぐ,普通科,,,,,
67,昇陽高等学校,しょうようこうとうがっこう,http://www.oskshoyo.ed.jp/,大阪府大阪市此花区朝日1-1-9,私立,共学校,福祉科、普通科,06-6461-0091,34.684565,135.462218,JR大阪環状線・阪神なんば線「西九条」徒歩6分／阪神なんば線「千鳥橋」徒歩5分,福祉科,普通科,,,,
68,精華高等学校,せいかこうとうがっこう,http://www.seika-h.ed.jp/,大阪府堺市中区辻之1517,私立,共学校,普通科,072-234-3391,34.510638,135.515297,泉北高速鉄道「泉ヶ丘」「深井」から南海バス「東中学校前」下車徒歩5分／南海高野線「北野田」南海バス「高山」下車徒歩8分,普通科,,,,,
69,清教学園高等学校,せいきょうがくえんこうとうがっこう,https://www.seikyo.ed.jp/,大阪府河内長野市末広町623,私立,共学校,普通科,0721-62-6828,34.445929,135.574681,南海・近鉄「河内長野」南東徒歩10分／南海「岸和田」「泉佐野」泉北「和泉中央」水間「水間観音」からバス,普通科,,,,,
70,星翔高等学校,せいしょうこうとうがっこう,http://www.osaka-seisho.ed.jp/,大阪府摂津市三島3-5-36,私立,共学校,機械工学科、電子機械工学科、電気工学科、コミュニケーションシステム工学科、普通科,06-6381-0220,34.78027,135.555133,阪急京都線「正雀」東徒歩14分・「摂津市」徒歩10分／大阪モノレール「摂津」徒歩12分／JR京都線「岸辺」徒歩19　　分・「千里丘」徒歩19分,機械工学科,電子機械工学科,電気工学科,コミュニケーションシステム工学科,普通科,
71,清風高等学校,せいふうこうとうがっこう,https://www.seifu.ac.jp/,大阪府大阪市天王寺区石ヶ辻町12-16,私立,男子校,普通科,06-6771-5757,34.664025,135.521622,大阪メトロ谷町線・千日前線「谷町九丁目」徒歩7分／近鉄線・阪神なんば線「大阪上本町」徒歩3分／JR大阪環状線「鶴橋」徒歩12分,普通科,,,,,
72,清風南海高等学校,せいふうなんかいこうとうがっこう,http://www.seifunankai.ac.jp,大阪府高石市綾園5-7-64,私立,共学校,普通科,072-261-7761,34.517084,135.428257,南海本線「高石」徒歩7分・「北助松」徒歩5分／JR阪和線「北信太」徒歩20分,普通科,,,,,
73,清明学院高等学校,せいめいがくいんこうとうがっこう,http://www.seimei.ed.jp,大阪府大阪市住吉区墨江2-4-4,私立,共学校,普通科,06-6673-8181,34.607511,135.495053,南海高野線「沢ノ町」徒歩4分／南海本線「住吉大社」徒歩12分,普通科,,,,,
74,宣真高等学校,せんしんこうとうがっこう,http://senshin-gakuen.jp,大阪府池田市荘園2-3-12,私立,女子校,普通科,072-761-8801,34.810488,135.437633,阪急宝塚線「石橋阪大前」徒歩約10分,普通科,,,,,
75,相愛高等学校,そうあいこうとうがっこう,http://www.soai.ed.jp/,大阪府大阪市中央区本町4-1-23,私立,女子校,音楽科、普通科,06-6262-0621,34.684147,135.499316,大阪メトロ御堂筋線「本町」4号出口すぐ,音楽科,普通科,,,,
76,大商学園高等学校,だいしょうがくえんこうとうがっこう,http://www.daisho.ac.jp,大阪府豊中市利倉東1-2-1,私立,共学校,商業科、普通科,06-6862-5223,34.764398,135.465331,阪急宝塚線「服部天神」西へ徒歩10分,商業科,普通科,,,,
77,太成学院大学高等学校,たいせいがくいんだいがくこうとうがっこう,http://www.taisei-hs.ac.jp,大阪府大東市諸福7-2-23,私立,共学校,スポーツ科、普通科,072-871-1921,34.70415,135.59745,JR学研都市線「鴻池新田」北徒歩7分,スポーツ科,普通科,,,,
78,高槻高等学校,たかつきこうとうがっこう,https://www.takatsuki.ed.jp,大阪府高槻市沢良木町2-5,私立,共学校,普通科,072-671-0001,34.847321,135.629705,阪急「高槻市」徒歩7分／JR「高槻」徒歩16分／京阪「枚方市」から京阪バス「松原」下車すぐ,普通科,,,,,
79,帝塚山学院高等学校,てづかやまがくいんこうとうがっこう,http://www.tezukayama.ac.jp/cyu_kou,大阪府大阪市住吉区帝塚山中3-10-51,私立,女子校,普通科,06-6672-1151,34.620498,135.498311,南海高野線「帝塚山」下車すぐ／阪堺上町線「帝塚山三丁目」徒歩2分,普通科,,,,,
80,帝塚山学院泉ヶ丘高等学校,てづかやまがくいんいずみがおかこうとうがっこう,http://www.tezuka-i-h.jp,大阪府堺市南区晴美台4-2-1,私立,共学校,普通科,072-293-1221,34.489011,135.531757,泉北高速鉄道「泉ヶ丘」から南海バス「帝塚山学院泉ヶ丘校前」下車,普通科,,,,,
81,天王寺学館高等学校,てんのうじがっかんこうとうがっこう,http://www.tg-group.ac.jp/tgkoko,大阪府大阪市平野区平野北1-10-43,私立,共学校,通信制,06-6795-1860,34.63137,135.552064,JR大和路線「平野」駅前／大阪メトロ千日前線「南巽」より479号線を南に徒歩約20分／大阪メトロ谷町線「平野」より479号線を北に徒歩約20分,通信制,,,,,
82,東海大学付属大阪仰星高等学校,とうかいだいがくふぞくおおさかぎょうせいこうとうがっこう,http://www.tokai.ed.jp/gyosei/,大阪府枚方市桜丘町60-1,私立,共学校,普通科,072-849-7211,34.805995,135.669563,京阪交野線「村野」徒歩10分／近鉄学園前～登美が丘～白庭台～田原台スクールバス,普通科,,,,,
83,同志社香里高等学校,どうししゃこうりこうとうがっこう,http://www.kori.doshisha.ac.jp,大阪府寝屋川市三井南町15-1,私立,共学校,普通科,072-831-0285,34.773487,135.635891,京阪「香里園」南東徒歩約18分,普通科,,,,,
84,東朋学園高等学校,とうほうがくえんこうとうがっこう,http://www.okazakitoho.ed.jp/,大阪府大阪市天王寺区城南寺町7-28,私立,共学校,通信制,06-6761-3111,34.669412,135.522269,近鉄大阪線「大阪上本町駅」徒歩約7　分／大阪メトロ「谷町九丁目」11番出口徒歩約10分／JR大阪環状線「鶴橋」中央改札徒歩約13分／大阪シティバス「上本町六丁目」バス停徒歩約7分,通信制,,,,,
85,長尾谷高等学校,ながおだにこうとうがっこう,http://www.nagaodani.ed.jp,大阪府枚方市長尾元町2-29-27,私立,共学校,通信制,072-850-9111,34.826514,135.707514,阪急「中津」南西350ｍ／JR「大阪」北1200ｍ／大阪メトロ「中津」南西850ｍ／阪急「大阪梅田」西1500ｍ,通信制,,,,,
86,浪速高等学校,なにわこうとうがっこう,http://www.naniwa.ed.jp/,大阪府大阪市住吉区山之内2-13-57,私立,共学校,普通科,06-6693-4031,34.598002,135.50111,大阪メトロ御堂筋線「あびこ」徒歩約14分／JR阪和線「我孫子町」「杉本町」徒歩9分／南海高野線「我孫子前」徒歩6分,普通科,,,,,
87,梅花高等学校,ばいかこうとうがっこう,http://www.baika-jh.ed.jp,大阪府豊中市上野西1-5-30,私立,女子校,普通科,06-6852-0001,34.790501,135.47151,阪急宝塚線「豊中」徒歩約13分／北大阪急行「千里中央」「桃山台」から阪急バス「梅花学園前」下車すぐ／大阪モノレール「少路」からスクールバス20分,普通科,,,,,
88,羽衣学園高等学校,はごろもがくえんこうとうがっこう,http://www.hagoromogakuen.ed.jp/,大阪府高石市東羽衣1-11-57,私立,共学校,普通科,072-265-7561,34.534582,135.445209,南海「羽衣」・JR阪和線「東羽衣」徒歩4分,普通科,,,,,
89,初芝富田林高等学校,はつしばとんだばやしこうとうがっこう,http://www.hatsushiba.ed.jp/tondabayashi/,大阪府富田林市彼方1801,私立,共学校,普通科,0721-34-1010,34.471304,135.589974,近鉄長野線「滝谷不動」南東徒歩20分／南海「河内長野」・近鉄長野線「滝谷不動」・泉北高速鉄道「泉ヶ丘」・「和泉中央」・南海本線「岸和田」・JR阪和線「和泉府中」・「久米田」からスクールバス,普通科,,,,,
90,初芝立命館高等学校,はつしばりつめいかんこうとうがっこう,http://www.hatsushiba.ed.jp/ritsumeikan/,大阪府堺市東区西野194-1,私立,共学校,体育科、普通科,072-235-3900,34.511311,135.542601,南海高野線「北野田」徒歩15分,体育科,普通科,,,,
91,阪南大学高等学校,はんなんだいがくこうとうがっこう,http://www.hdk.ed.jp/,大阪府松原市河合2-10-65,私立,共学校,普通科,072-332-1221,34.570294,135.544074,「天王寺」「大阪阿部野橋」約20分／堺・堺市・堺東から南海バス「高見ノ里」下車,普通科,,,,,
92,PL学園高等学校,びーえるがくえんこうとうがっこう,https://web.pl-gakuen.ac.jp/,大阪府富田林市喜志2055,私立,共学校,普通科,0721-24-5132,34.52244,135.595582,近鉄長野線「喜志」西徒歩15分,普通科,,,,,
93,東大阪大学柏原高等学校,ひがしおおさかだいがくかしわらこうとうがっこう,http://www.kashiwara.ed.jp/,大阪府柏原市本郷5-993,私立,男子校,普通科,072-972-1565,34.590597,135.609328,JR大和路線「志紀」・「柏原」徒歩15分／近鉄大阪線「法善寺」「堅下」徒歩20分／近鉄道明寺線「柏原」徒歩5分,普通科,,,,,
94,東大阪大学敬愛高等学校,ひがしおおさかだいがくけいあいこうとうがっこう,http://www.higashiosaka-hs.ac.jp/keiai,大阪府東大阪市西堤学園町3-1-1,私立,共学校,普通科,06-6782-2881,34.676379,135.581047,JRおおさか東線「高井田中央」徒歩15分／近鉄奈良線「河内小阪」徒歩15分・近鉄バス「東大阪大学前」下車徒歩10分／大阪メトロ中央線「高井田」・「長田」徒歩15分,普通科,,,,,
95,東大谷高等学校,ひがしおおたにこうとうがっこう,http://www.higashiohtani.ac.jp,大阪府堺市南区三原台 2-2-2,私立,共学校,普通科,072-289-8069,34.501871,135.513995,泉北高速鉄道「泉ケ丘」徒歩8分,普通科,,,,,
96,プール学院高等学校,ぷーるがくいんこうとうがっこう,http://www.poole.ed.jp,大阪府大阪市生野区勝山北1-19-31,私立,女子校,普通科,06-6741-7005,34.655027,135.528072,JR環状線「桃谷」徒歩7分,普通科,,,,,
97,箕面学園高等学校,みのおがくえんこうとうがっこう,http://www.minohgakuen.ed.jp,大阪府箕面市箕面7-7-31,私立,共学校,普通科,072-723-6551,34.834972,135.46443,阪急箕面線「箕面」西へ徒歩5分／御堂筋線・大阪モノレール「千里中央」から阪急バス「箕面」下車西へ徒歩5分,普通科,,,,,
98,箕面自由学園高等学校,みのおじゆうがくえんこうとうがっこう,https://mino-jiyu.ed.jp/,大阪府豊中市宮山町4-21-1,私立,共学校,普通科,06-6852-8110,34.811672,135.463124,阪急箕面線「桜井」南徒歩約7分／御堂筋線・大阪モノレール「千里中央」から阪急バス「春日町4丁目」下車徒歩約7分／大阪モノレール「柴原」徒歩約20分／JR京都線「茨木」から阪急バス「南桜井」下車すぐ,普通科,,,,,
99,明浄学院高等学校,めいじょうがくいんこうとうがっこう,http://www.meijo.ed.jp,大阪府大阪市阿倍野区文の里3-15-7,私立,共学校,普通科、看護科,06-6623-0016,34.63559,135.521372,大阪メトロ谷町線「文の里」東徒歩3分／大阪メトロ御堂筋線「昭和町」北東徒歩6分／JR阪和線「美章園」南西徒歩5分／近鉄南大阪線「北田辺」北西徒歩10分,普通科,看護科,,,,
100,明星高等学校,みょうじょうこうとうがっこう,http://www.meisei.ed.jp,大阪府大阪市天王寺区餌差町5-44,私立,男子校,普通科,06-6761-5606,34.672371,135.52506,JR大阪環状線「玉造」徒歩10分／大阪メトロ長堀鶴見緑地線「玉造」徒歩7分／近鉄「大阪上本町」徒歩12分／大阪メトロ谷町線「谷町六丁目」徒歩12分,普通科,,,,,
101,桃山学院高等学校,ももやまがくいんこうとうがっこう,http://www.momoyamagakuin-h.ed.jp/,大阪府大阪市阿倍野区昭和町3-1-64,私立,共学校,普通科,06-6621-1181,34.629445,135.516578,大阪メトロ御堂筋線「昭和町」徒歩5分／大阪メトロ谷町線「文の里」徒歩8分／JR阪和線「南田辺」徒歩10分,普通科,,,,,
102,八洲学園高等学校,やしまがくえんこうとうがっこう,http://www.yashima.ac.jp/hs/,大阪府堺市西区鳳中町8-3-25,私立,共学校,通信制,072-262-8281,34.534687,135.453022,JR「鳳」西出口より徒歩8分,通信制,,,,,
103,履正社高等学校,りせいしゃこうとうがっこう,http://riseisha.ed.jp/h_school/,大阪府豊中市長興寺南4-3-19,私立,共学校,普通科,06-6864-0456,34.775291,135.480309,阪急宝塚線「曽根」東へ徒歩15分／北大阪急行「緑地公園駅」西へ徒歩18分,普通科,,,,,
104,YMCA学院高等学校,わいえむしいえいがくいんこうとうがっこう,http://www.ymcagakuin.ac.jp,大阪府大阪市天王寺区生玉寺町1-3,私立,共学校,通信制,06-6779-5690,34.663032,135.5147,大阪メトロ谷町線・千日前線「谷町九丁目」3番出口より徒歩4分／大阪メトロ谷町線「四天王寺前夕陽ヶ丘」徒歩7分／近鉄「大阪上本町」徒歩約7分,通信制,,,,,
105,早稲田摂陵高等学校,わせだせつりょうこうとうがっこう,http://www.waseda-setsuryo.ed.jp,大阪府茨木市宿久庄7-20-1,私立,共学校,普通科,072-643-6363,34.846013,135.528846,阪急「茨木市」「北千里」「石橋」／北大阪急行・大阪モノレール「千里中央」／JR「茨木」からスクールバス／大阪モノレール「彩都西」から阪急バス「彩都あさぎ三丁目」下車徒歩1分,普通科,,,,,
106,芥川高等学校,あくたがわこうとうがっこう,https://www.osaka-c.ed.jp/akutagawa/,大阪府高槻市浦堂1-12-1,公立,共学校,普通科,072-689-0109,34.861548,135.601541,JR「高槻」より高槻市バス「緑ヶ丘」下車北西250ｍ,普通科,,,,,
107,旭高等学校,あさひこうとうがっこう,https://www.osaka-c.ed.jp/asahi/,大阪府大阪市旭区高殿5-6-41,公立,共学校,普通科、国際教養科,06-6951-3133,34.719211,135.541845,京阪「関目」徒歩12分・「森小路」徒歩13分／大阪メトロ谷町線「関目高殿」徒歩5番出口7分／大阪メトロ今里筋線「関目成育」徒歩12分,普通科,国際教養科,,,,
108,芦間高等学校,あしまこうとうがっこう,https://www.osaka-c.ed.jp/ashima/,大阪府守口市外島町1-43,公立,共学校,総合学科,06-6993-7687,34.741705,135.563096,大阪メトロ谷町線「守口」北400ｍ／京阪「守口市」北900ｍ,総合学科,,,,,
109,阿武野高等学校,あぶのこうとうがっこう,https://www.osaka-c.ed.jp/abuno/,大阪府高槻市氷室町3-38-1,公立,共学校,普通科,072-693-4670,34.848037,135.585335,JR「摂津富田」からバス「氷室」下車西300ｍ,普通科,,,,,
110,阿倍野高等学校,あべのこうとうがっこう,https://www.osaka-c.ed.jp/abeno/,大阪府大阪市阿倍野区阪南町1-30-34,公立,共学校,普通科,06-6628-1461,34.635998,135.514607,大阪メトロ御堂筋線「昭和町」西400ｍ／大阪メトロ谷町線「文の里」西600ｍ／JR阪堺上町線「松虫」東700ｍ,普通科,,,,,
111,生野工業高等学校,いくのこうぎょうこうとうがっこう,https://www3.osaka-c.ed.jp/ikuno-t,大阪府大阪市生野区生野東2-3-66,公立,共学校,機械科、電気科、電子機械科,06-6731-5551,34.647329,135.530614,JR環状線「寺田町」東800ｍ,機械科,電気科,電子機械科,,,
112,生野高等学校,いくのこうとうがっこう,https://www.osaka-c.ed.jp/ikuno/,大阪府松原市新堂1-552,公立,共学校,文理学科,072-332-0531,34.572037,135.554312,近鉄南大阪線「河内松原」南西600ｍ,文理学科,,,,,
113,池田高等学校,いけだこうとうがっこう,https://www.osaka-c.ed.jp/ikeda/,大阪府池田市旭丘2-2-1,公立,共学校,普通科,072-761-1131,34.820091,135.448372,阪急宝塚線「石橋阪大前」北東1．5ｋｍ,普通科,,,,,
114,泉尾工業高等学校,いずおこうぎょうこうとうがっこう,https://www3.osaka-c.ed.jp/izuo-t,大阪府大阪市大正区泉尾5-16-7,公立,共学校,機械科、電気科、工業化学科、セラミック科、ファッション工学科,06-6552-2221,34.654835,135.46823,JR環状線「大正」・大阪メトロ「大正」から大阪市バス「泉尾四丁目」下車・「南泉尾」下車西300ｍ,機械科,電気科,工業化学科,セラミック科,ファッション工学科,
115,泉大津高等学校,いずみおおつこうとうがっこう,https://www.osaka-c.ed.jp/izumiohtsu/,大阪府泉大津市北豊中町1-1-1,公立,共学校,普通科,0725-32-2876,34.498073,135.42265,南海本線「泉大津」東2ｋｍ／JR阪和線「和泉府中」北1．7ｋｍ,普通科,,,,,
116,和泉高等学校,いずみこうとうがっこう,https://www.osaka-c.ed.jp/izumi/,大阪府岸和田市土生町1-2-1,公立,共学校,普通科、グローバル科,072-423-1926,34.453517,135.383396,南海本線「岸和田」東1ｋｍ／JR阪和線「東岸和田」西800ｍ,普通科,グローバル科,,,,
117,和泉総合高等学校,いずみそうごうこうとうがっこう,https://www.osaka-c.ed.jp/izumi-t/,大阪府和泉市冨秋町1-14-4,公立,共学校,総合学科（エンパワメントスクール）,0725-41-1250,34.504034,135.431263,JR阪和線「信太山」北西500ｍ／南海本線「北助松」南東1．9ｋｍ,総合学科（エンパワメントスクール）,,,,,
118,市岡高等学校,いちおかこうとうがっこう,https://www.osaka-c.ed.jp/ichioka/,大阪府大阪市港区市岡元町2-12-12,公立,共学校,普通科単位制,06-6582-0330,34.666742,135.466251,JR環状線・大阪メトロ中央線「弁天町」東南東約400ｍ,普通科単位制,,,,,
119,いちりつ高等学校,いちりつこうとうがっこう,https://www3.osaka-c.ed.jp/ichiritsu,大阪府枚方市北中振2-8-1,公立,共学校,普通科、理数科、英語科,072-833-0101,34.795831,135.633527,京阪「光善寺」東約350ｍ,普通科,理数科,英語科,,,
120,茨木工科高等学校,いばらきこうかこうとうがっこう,https://www.osaka-c.ed.jp/ibaraki-t/,大阪府茨木市春日5-6-41,公立,共学校,工業に関する学科【機械系・電気系・環境化学システム系・工学系】,072-623-1331,34.825189,135.564304,JR「茨木」北1．1ｋｍ・「総持寺」西1．1ｋｍ／阪急「茨木市」北西約1．8ｋｍ／阪急バス「春日」下車東300ｍ「上穂積」下車北東500ｍ,工業に関する学科【機械系・電気系・環境化学システム系・工学系】,,,,,
121,茨木高等学校,いばらきこうとうがっこう,https://www.osaka-c.ed.jp/ibaraki/,大阪府茨木市新庄町12-1,公立,共学校,文理学科,072-622-3423,34.813776,135.571126,阪急京都線「茨木市」南西650ｍ／JR「茨木」東750ｍ,文理学科,,,,,
122,茨木西高等学校,いばらきにしこうとうがっこう,https://www.osaka-c.ed.jp/ibarakinishi/,大阪府茨木市紫明園10-68,公立,共学校,普通科,072-625-5711,34.812846,135.549935,大阪モノレール「宇野辺」徒歩900ｍ／JR「茨木」徒歩1800ｍ,普通科,,,,,
123,今宮工科高等学校,いまみやこうかこうとうがっこう,https://www.osaka-c.ed.jp/imamiya-t/,大阪府大阪市西成区出城1-1-6,公立,共学校,工業に関する学科【機械系・電気系・建築系・グラフィックデザイン系・工学系】,06-6631-0055,34.65026,135.496286,JR環状線・南海本線「新今宮」西400ｍ／大阪メトロ御堂筋線・四つ橋線「大国町」南600ｍ／大阪メトロ堺筋線「動物園前」西600ｍ／大阪メトロ四ツ橋線「花園」北600ｍ,工業に関する学科【機械系・電気系・建築系・グラフィックデザイン系・工学系】,,,,,
124,今宮高等学校,いまみやこうとうがっこう,https://www.osaka-c.ed.jp/imamiya/,大阪府大阪市浪速区戎本町2-7-39,公立,共学校,総合学科,06-6641-2612,34.651921,135.498311,大阪メトロ御堂筋線「大国町」南300ｍ／JR環状線・南海「新今宮」北西300ｍ,総合学科,,,,,
125,園芸高等学校,えんげいこうとうがっこう,https://osaka-engei.ed.jp/,大阪府池田市八王寺2-5-1,公立,共学校,農業に関する学科【フラワーファクトリ・環境緑化・バイオサイエンス】,072-761-8830,34.810184,135.434627,阪急宝塚線「石橋」西1．2ｋｍ,農業に関する学科【フラワーファクトリ・環境緑化・バイオサイエンス】,,,,,
126,桜和高等学校,おうわこうとうがっこう,https://www3.osaka-c.ed.jp/owa,大阪府大阪市北区松ヶ枝町1-38,公立,共学校,教育文理学科,06-6351-0036,34.69898,135.517421,大阪メトロ谷町線・堺筋線「南森町」北東800ｍ／JR東西線「大阪天満橋」北東600ｍ／JR環状線「桜ノ宮」南西900ｍ／大阪シティバス［東天満］北150ｍ,教育文理学科,,,,,
127,大阪公立大学工業高等専門学校,おおさかこうりつだいがくこうぎょうこうとうせんもんがっこう,https://www.ct.omu.ac.jp/,大阪府寝屋川市幸町26-12,公立,共学校,本科、専攻科,072-821-6401,34.770453,135.629004,京阪本線「寝屋川市」徒歩北東約15分／京阪バス「寝屋川警察署前」下車徒歩約3分,本科,専攻科,,,,
128,大阪ビジネスフロンティア高等学校,おおさかびじねすふろんてぃあこうとうがっこう,https://www.osaka-c.ed.jp/obf-b,大阪府大阪市天王寺区烏ヶ辻2-9-26,公立,共学校,グローバルビジネス科,06-6772-7961,34.655489,135.524535,JR環状線「桃谷」南西400ｍ／大阪メトロ谷町線「四天王寺前夕陽ヶ丘」東1000ｍ,グローバルビジネス科,,,,,
129,大阪わかば高等学校,おおさかわかばこうとうがっこう,https://www2.osaka-c.ed.jp/osakawakaba/,大阪府大阪市生野区巽東3-10-75,公立,共学校,多部制単位制１・２部【普通科】,06-6757-9171,34.651308,135.559395,大阪メトロ千日前線「北巽」東約500ｍ／JRおおさか東線「JR長瀬」西1200ｍ,多部制単位制１・２部【普通科】,,,,,
130,大塚高等学校,おおつかこうとうがっこう,https://www.osaka-c.ed.jp/ohtsuka/,大阪府松原市西大塚2-1005,公立,共学校,普通科、体育科,072-332-7515,34.569214,135.566112,近鉄南大阪線「河内松原」南東約1．4ｋｍ／近鉄バス・南海バス「近鉄河内松原駅前」下車、南東1．4Ｋｍ,普通科,体育科,,,,
131,大手前高等学校,おおてまえこうとうがっこう,https://www.osaka-c.ed.jp/otemae/,大阪府大阪市中央区大手前2-1-11,公立,共学校,文理学科,06-6941-0051,34.687256,135.519837,大阪メトロ谷町線「天満橋」3番出口東南400ｍ／京阪「天満橋」3番出口東南500ｍ／大阪市バス「大手前」,文理学科,,,,,
132,鳳高等学校,おおとりこうとうがっこう,https://www.osaka-c.ed.jp/ohtori/,大阪府堺市西区原田150,公立,共学校,普通科単位制,072-271-5151,34.517657,135.458268,JR阪和線「富木」南東1．2ｋｍ・「鳳」南東1．7ｋｍ／南海本線「高石」南東2．7ｋｍ／南海バス［草部］西500ｍ,普通科単位制,,,,,
133,貝塚高等学校,かいづかこうとうがっこう,https://www.osaka-c.ed.jp/kaizuka/,大阪府貝塚市畠中1-1-1,公立,共学校,総合学科,072-423-1401,34.440358,135.358197,南海本線「貝塚」東800ｍ,総合学科,,,,,
134,貝塚南高等学校,かいづかみなみこうとうがっこう,https://www.osaka-c.ed.jp/kaizukaminami/,大阪府貝塚市橋本620,公立,共学校,普通科,072-432-2004,34.422239,135.367265,JR阪和線「和泉橋本」南東1，2Ｋｍ／水間鉄道水間線「清児」南西700ｍ,普通科,,,,,
135,懐風館高等学校,かいふうかんこうとうがっこう,https://www.osaka-c.ed.jp/kaifukan/,大阪府羽曳野市大黒776,公立,共学校,普通科,072-957-0001,34.539342,135.622517,近鉄南大阪線「駒ヶ谷」南1，1Ｋｍ・「古市」南東2，6Ｋｍ／近鉄長野線「喜志」北東2，9Ｋｍ／近鉄大阪線「河内国分」南南西3，8Ｋｍ,普通科,,,,,
136,春日丘高等学校,かすががおかこうとうがっこう,https://www.osaka-c.ed.jp/kasugaoka/,大阪府茨木市春日2-1-2,公立,共学校,普通科,072-623-2061,34.818483,135.56093,JR「茨木」北西約300ｍ／阪急京都線「茨木市」西約1400ｍ／大阪モノレール「宇野辺」北約1300ｍ,普通科,,,,,
137,交野高等学校,かたのこうとうがっこう,https://www2.osaka-c.ed.jp/katano/,大阪府交野市寺南野10-1,公立,共学校,普通科,072-891-9251,34.781794,135.688783,京阪交野線「泉河内森」約1．2ｋｍ／JR学研都市線「河内磐船」約1ｋｍ,普通科,,,,,
138,門真なみはや高等学校,かどまなみはやこうとうがっこう,https://www.osaka-c.ed.jp/kadomanamihaya/,大阪府門真市島頭4-9-1,公立,共学校,総合学科,072-881-2331,34.727805,135.60907,京阪「大和田」から京阪バス「門真団地」北東200ｍ／JR「住道」から近鉄バス「下馬伏」西800ｍ／大阪メトロ「門真南」から京阪バス「門真団地」北東200ｍ,総合学科,,,,,
139,門真西高等学校,かどまにしこうとうがっこう,https://www.osaka-c.ed.jp/kadomanishi/,大阪府門真市柳田町29-1,公立,共学校,普通科,06-6909-0318,34.728839,135.591044,京阪「古川橋」南約1．5ｋｍ／京阪バス「試験場前」下車,普通科,,,,,
140,金岡高等学校,かなおかこうとうがっこう,https://www.osaka-c.ed.jp/kanaoka/,大阪府堺市北区金岡町2651,公立,共学校,普通科,072-257-1431,34.553306,135.526322,南海高野線「初芝」北1，5Ｋｍ・「白鷺」北東1，6ｋｍ／御堂筋線「なかもず」2Ｋｍ,普通科,,,,,
141,河南高等学校,かなんこうとうがっこう,https://www.osaka-c.ed.jp/kanan/,大阪府富田林市錦ヶ丘町1-15,公立,共学校,普通科,0721-23-2081,34.499788,135.59109,近鉄長野線「富田林西口」西400ｍ／南海高野線「金剛」駅より東へ自転車で15～20分,普通科,,,,,
142,岸和田高等学校,きしわだこうとうがっこう,https://www.osaka-c.ed.jp/kishiwada/,大阪府岸和田市岸城町10-1,公立,共学校,文理学科,072-422-3691,34.458289,135.372052,南海本線「蛸地蔵」北東300ｍ・「岸和田」南西700ｍ,文理学科,,,,,
143,岸和田市立産業高等学校,きしわだしりつさんぎょうこうとうがっこう,http://www.kishisan-h.ed.jp/,大阪府岸和田市別所町3-33-1,公立,共学校,デザインシステム科 、商業科、情報科,072-422-4861,34.460496,135.389444,南海本線「岸和田」東1200ｍ／JR阪和線「下松」西800ｍ,デザインシステム科,商業科,情報科,,,
144,北かわち皐が丘高等学校,きたかわちさつきがおかこうとうがっこう,https://www2.osaka-c.ed.jp/kitakawachisatsukigaoka/,大阪府寝屋川市寝屋北町1-1,公立,共学校,普通科,072-822-2241,34.77466,135.655661,JR学研都市線「星田」北西約1300ｍ／京阪「寝屋川市」から京阪バス「寝屋川団地口」下車約400ｍ,普通科,,,,,
145,北千里高等学校,きたせんりこうとうがっこう,https://www.osaka-c.ed.jp/kitasenri/,大阪府吹田市藤白台5-6-1,公立,共学校,普通科,06-6872-0535,34.828921,135.506983,阪急千里線「北千里」北約1ｋｍ／「北千里」から阪急バス、北大阪急行・大阪モノレール「千里中央」より阪急バス「藤白台五丁目」下車南へ200ｍ,普通科,,,,,
146,北野高等学校,きたのこうとうがっこう,https://www.osaka-c.ed.jp/kitano/,大阪府大阪市淀川区新北野2-5-13,公立,共学校,文理学科,06-6303-5661,34.716289,135.477052,阪急宝塚線「十三」南西700ｍ／JR「塚本」東1100ｍ,文理学科,,,,,
147,教育センター附属高等学校,きょういくせんたーふぞくこうとうがっこう,https://www.osaka-c.ed.jp/partner/,大阪府大阪市住吉区苅田4-1-72,公立,共学校,普通科単位制,06-6692-0006,34.602054,135.521146,大阪メトロ御堂筋線「あびこ」東北東1．2ｋｍ／JR阪和線「我孫子町」東1．6ｋｍ／近鉄南大阪線「矢田」西南西1．5ｋｍ,普通科単位制,,,,,
148,柴島高等学校,くにじまこうとうがっこう,https://www.osaka-c.ed.jp/kunijima/,大阪府大阪市東淀川区柴島1-7-106,公立,共学校,総合学科,06-6323-8351,34.729114,135.510243,阪急京都線「崇禅寺」下車すぐ／阪急千里線「柴島」北西200ｍ／大阪市バス「長柄橋北詰」下車北400ｍ,総合学科,,,,,
149,久米田高等学校,くめだこうとうがっこう,https://www.osaka-c.ed.jp/kumeda/,大阪府岸和田市額原町1100,公立,共学校,普通科,072-443-6651,34.461831,135.398298,南海本線「岸和田」「和泉大宮」からバス「市民病院前」下車／JR阪和線「下松」西700ｍ,普通科,,,,,
150,工芸高等学校,こうげいこうとうがっこう,https://www3.osaka-c.ed.jp/kogei-t,大阪府大阪市阿倍野区文の里1-7-2,公立,共学校,建築デザイン科、インテリアデザイン科、ビジュアルデザイン科、映像デザイン科、プロダクトデザイン科、美術科,06-6623-0485,34.637883,135.518871,大阪メトロ谷町線「文の里」北200ｍ／御堂筋線「昭和町」北500ｍ／JR阪和線「美章園」西500ｍ,建築デザイン科,インテリアデザイン科,ビジュアルデザイン科,映像デザイン科,プロダクトデザイン科,美術科
151,高津高等学校,こうづこうとうがっこう,https://www.osaka-c.ed.jp/kozu/,大阪府大阪市天王寺区餌差町10-47,公立,共学校,文理学科,06-6761-0336,34.669588,135.525567,近鉄大阪［上本町］北東800ｍ／JR環状線・大阪メトロ千日前線・近鉄「鶴橋」北西800～900ｍ／大阪メトロ谷町線「谷町九丁目」東北東約900ｍ／JR環状線「玉造」南西約1ｋｍ,文理学科,,,,,
152,港南造形高等学校,こうなんぞうけいこうとうがっこう,https://www.osaka-c.ed.jp/konanzokei/,大阪府大阪市住之江区南港東2-5-72,公立,共学校,総合造形科,06-6613-1000,34.613469,135.443209,ニュートラム「南港口」西400ｍ・「港南東」東400ｍ,総合造形科,,,,,
153,香里丘高等学校,こうりがおかこうとうがっこう,https://www.osaka-c.ed.jp/korigaoka/,大阪府枚方市東中振2-18-1,公立,共学校,普通科,072-832-3421,34.795066,135.642418,京阪「光善寺」東1．2ｋｍ／「香里園」からバス10分,普通科,,,,,
154,金剛高等学校,こんごうこうとうがっこう,https://www.osaka-c.ed.jp/kongo/,大阪府富田林市藤沢台2-1-1,公立,共学校,普通科,0721-28-3811,34.504228,135.573892,南海高野線「金剛」から南海バス「藤沢台6丁目」もしくは「金剛高校前」下車徒歩5分／近鉄長野線「富田林」から近鉄バス「藤沢台6丁目」下車徒歩5分,普通科,,,,,
155,堺工科高等学校,さかいこうかこうとうがっこう,https://www.osaka-c.ed.jp/sakai-t/,大阪府堺市堺区大仙中町12-1,公立,共学校,工業に関する学科【機械系・電気系・環境化学システム系】,072-241-1401,34.562269,135.476997,JR阪和線「百舌鳥」西1．2ｋｍ／南海高野線「堺東」南1．6ｋｍ・南海バス「工業高校前」下車,工業に関する学科【機械系・電気系・環境化学システム系】,,,,,
156,堺上高等学校,さかいじょうこうとうがっこう,https://www.osaka-c.ed.jp/sakaikami/,大阪府堺市西区上61,公立,共学校,普通科,072-271-0808,34.523944,135.467962,JR阪和線「鳳」南東約1，6Ｋｍ・「津久野」から南海バス「毛穴南」下車西200ｍ／泉北高速「深井」または「泉ヶ丘」から南海バス「毛穴南」下車西200ｍ,普通科,,,,,
157,堺市立堺高等学校,さかいしりつさかいこうとうがっこう,http://www.sakai.ed.jp/sakai-hs/,大阪府堺市堺区向陵東町1-10-1,公立,共学校,工業に関する学科、マネジメント創造科、サイエンス創造科,072-240-0840,34.563924,135.496654,JR阪和線・南海高野線「三国ヶ丘」東約500ｍ／南海高野線「百舌鳥八幡」北約500ｍ,工業に関する学科,マネジメント創造科,サイエンス創造科,,,
158,堺西高等学校,さかいにしこうとうがっこう,https://www.osaka-c.ed.jp/sakainishi/,大阪府堺市南区桃山台4-16,公立,共学校,普通科,072-298-4410,34.495548,135.484309,泉北高速鉄道「栂・美木多」徒歩15分・南海バス「堺西高校前」下車／JR阪和線「津久野」から南海バス「堺西高校前」下車,普通科,,,,,
159,堺東高等学校,さかいひがしこうとうがっこう,https://www.osaka-c.ed.jp/sakaihigashi/,大阪府堺市南区晴美台1-1-2,公立,共学校,総合学科,072-291-5510,34.49895,135.53416,泉北高速鉄道「泉ケ丘」・南海高野線「金剛」から南海バス「堺東高校前」下車徒歩4分,総合学科,,,,,
160,咲くやこの花高等学校,さくやこのはなこうとうがっこう,https://www3.osaka-c.ed.jp/sakuyakonohana,大阪府大阪市此花区西九条6-1-44,公立,共学校,総合学科、食物文化科、演劇科,06-6464-8881,34.680403,135.462673,JR環状線・阪神なんば線「西九条」南西約500ｍ,総合学科,食物文化科,演劇科,,,
161,桜塚高等学校,さくらづかこうとうがっこう,https://www.osaka-c.ed.jp/sakurazuka/,大阪府豊中市中桜塚4-1-1,公立,共学校,普通科,06-6853-2244,34.782382,135.472353,阪急宝塚線「岡町」東800ｍ,普通科,,,,,
162,桜宮高等学校,さくらのみやこうとうがっこう,https://www3.osaka-c.ed.jp/sakuranomiya,大阪府大阪市都島区毛馬町5-22-28,公立,共学校,普通科、人間スポーツ科学科,06-6921-5231,34.727169,135.524839,大阪メトロ御堂筋線「中津」からバス「大東町」北500ｍ／大阪メトロ「天満橋」からバス「赤川三丁目」北西800ｍ／＊JR「京橋」からバス「桜宮高校」下車すぐ,普通科,人間スポーツ科学科,,,,
163,佐野工科高等学校,さのこうかこうとうがっこう,https://www.osaka-c.ed.jp/sano-t/,大阪府泉佐野市高松東1-3-50,公立,共学校,工業に関する学科【機械系・電気系・産業創造系】,072-462-2772,34.406355,135.316897,南海本線「泉佐野」南東500ｍ,工業に関する学科【機械系・電気系・産業創造系】,,,,,
164,佐野高等学校,さのこうとうがっこう,https://www.osaka-c.ed.jp/sano/,大阪府泉佐野市市場東2-14-1,公立,共学校,普通科、国際教養科,072-462-3825,34.406455,135.323261,南海本線「泉佐野」東850ｍ／JR阪和線「日根野」よりバズ「市場」下車,普通科,国際教養科,,,,
165,狭山高等学校,さやまこうとうがっこう,https://www.osaka-c.ed.jp/sayama/,大阪府大阪狭山市半田4-1510,公立,共学校,普通科,072-366-8400,34.49564,135.550184,南海高野線「金剛」西1，1Ｋｍ,普通科,,,,,
166,四條畷高等学校,しじょうなわてこうとうがっこう,https://www.osaka-c.ed.jp/shijonawate/,大阪府四條畷市雁屋北町1-1,公立,共学校,文理学科,072-877-0004,34.735793,135.63547,JR学研都市線「四条畷」北西800ｍ／「寝屋川市」から京阪バス「四条畷駅」下車／近鉄奈良線「瓢箪山」から近鉄バス「四条畷駅」下車,文理学科,,,,,
167,信太高等学校,しのだこうとうがっこう,https://www.osaka-c.ed.jp/shinoda/,大阪府和泉市葛の葉町3-6-8,公立,共学校,普通科,0725-23-3631,34.512326,135.433754,南海本線「北助松」東約1．1ｋｍ／JR阪和線「北信太」西約1．3ｋｍ,普通科,,,,,
168,渋谷高等学校,しぶやこうとうがっこう,https://www.osaka-c.ed.jp/shibutani/,大阪府池田市畑4-1-1,公立,共学校,普通科,072-751-2895,34.82722,135.448832,阪急宝塚線「石橋阪大前」北2ｋｍ／阪急石橋阪大前・池田から阪急バス「石澄（渋谷）高校前」下車,普通科,,,,,
169,清水谷高等学校,しみずたにこうとうがっこう,https://www.osaka-c.ed.jp/shimizudani/,大阪府大阪市天王寺区清水谷町2-44,公立,共学校,普通科,06-6762-0185,34.674614,135.524353,JR環状線「玉造」西800ｍ／大阪メトロ長堀鶴見緑地線「玉造」西500ｍ／大阪メトロ谷町線「谷町六丁目」東500ｍ，／近鉄「上本町」北1200ｍ,普通科,,,,,
170,城東工科高等学校,じょうとうこうかこうとうがっこう,https://joto-tech.ed.jp/,大阪府東大阪市西鴻池町2-5-33,公立,共学校,工業に関する学科【機械系・電気系・メカトロニクス系】,06-6745-0051,34.698839,135.593553,JR学研都市線「鴻池新田」200ｍ,工業に関する学科【機械系・電気系・メカトロニクス系】,,,,,
171,吹田高等学校,すいたこうとうがっこう,https://www.osaka-c.ed.jp/suita/,大阪府吹田市原町4-24-14,公立,共学校,普通科,06-6387-6651,34.778276,135.527814,JR「吹田」・阪急千里線「吹田」から阪急バス「吹田高校」下車／JR「岸辺」北西1500ｍ,普通科,,,,,
172,吹田東高等学校,すいたひがしこうとうがっこう,https://www.osaka-c.ed.jp/suitahigashi/,大阪府吹田市青葉丘南16-1,公立,共学校,普通科,06-6877-6715,34.804472,135.54635,大阪モノレール「宇野辺」西南西1200ｍ／JR「千里丘」北西1700ｍ／阪急千里線「山田」・北大阪急行「千里中央」から阪急バス「吹田東高校前」下車,普通科,,,,,
173,水都国際高等学校,すいとこくさいこうとうがっこう,https://osaka-city-ib.jp/,大阪府大阪市住之江区南港中2-7-18,公立,共学校,グローバル探究科,06-7662-9600,34.6284,135.427928,ニュートラム「ポートタウン西」南800ｍ・「ポートタウン東」南800ｍ,グローバル探究科,,,,,
174,住吉高等学校,すみよしこうとうがっこう,https://www.osaka-c.ed.jp/sumiyoshi/,大阪府大阪市阿倍野区北畠2-4-1,公立,共学校,国際文化科、総合科学科,06-6651-0525,34.627559,135.503397,阪堺上町線「北畠」西200ｍ,国際文化科,総合科学科,,,,
175,住吉商業高等学校,すみよししょうぎょうこうとうがっこう,https://www3.osaka-c.ed.jp/sumiyoshi-b,大阪府大阪市住之江区御崎7-12-55,公立,共学校,商業科,06-6681-0577,34.603819,135.479398,南海本線「住之江」南西700ｍ／大阪メトロ四つ橋線「住之江公園」南東1ｋｍ,商業科,,,,,
176,成城高等学校,せいじょうこうとうがこう,https://www.osaka-c.ed.jp/seijo-t/,大阪府大阪市城東区諏訪3-11-41,公立,共学校,総合学科（エンパワメントスクール）,06-6962-2801,34.682158,135.562147,大阪メトロ中央線「深江橋」北東約500ｍ／JR学研都市線・おおさか東線「放出」南約1200ｍ／JRおおさか東線「高井田中央」西約1300ｍ,総合学科（エンパワメントスクール）,,,,,
177,成美高等学校,せいびこうとうがっこう,https://www.osaka-c.ed.jp/seibi/,大阪府堺市南区城山台4-1-1,公立,共学校,総合学科,072-299-9000,34.463295,135.487206,泉北高速鉄道「光明池」から南海バス「城山台4丁」下車,総合学科,,,,,
178,摂津高等学校,せっつこうとうがっこう,https://www.osaka-c.ed.jp/settsu/,大阪府摂津市学園町1-5-1,公立,共学校,普通科、体育科,072-635-1441,34.787225,135.559568,阪急京都線「摂津市」東500ｍ／JR「千里丘」・大阪モノレール「沢良宜」・「摂津」1200ｍ,普通科,体育科,,,,
179,泉北高等学校,せんほくこうとうがっこう,https://www.osaka-c.ed.jp/semboku/,大阪府堺市南区若松台3-2-2,公立,共学校,国際文化科、総合科学科,072-297-1065,34.490299,135.50122,泉北高速鉄道「泉ケ丘」南西1．2ｋｍ・「栂・美木多」北1．2ｋｍ,国際文化科,総合科学科,,,,
180,泉陽高等学校,せんようこうとうがっこう,https://www.osaka-c.ed.jp/senyo/,大阪府堺市堺区車之町東3-2-1,公立,共学校,普通科,072-233-0588,34.580176,135.479794,阪堺線「花田口」東約300ｍ／南海高野線「堺東」北西約800ｍ／南海本線「堺」東約1Ｋｍ,普通科,,,,,
181,千里高等学校,せんりこうとうがっこう,https://www.osaka-c.ed.jp/senri/,大阪府吹田市高野台2-17-1,公立,共学校,国際文化科、総合科学科,06-6871-0050,34.799153,135.514681,阪急千里線「南千里」北東1ｋｍ・「山田」南800ｍ／大阪モノレール「山田」南900ｍ,国際文化科,総合科学科,,,,
182,千里青雲高等学校,せんりせいうんこうとうがっこう,https://www.osaka-c.ed.jp/senriseiun/,大阪府豊中市新千里南町1-5-1,公立,共学校,総合学科,06-6831-3045,34.804208,135.487266,北大阪急行「千里中央」南西1．5ｋｍ／阪急バス「豊中九中前」,総合学科,,,,,
183,大冠高等学校,だいかんこうとうがっこう,https://www.osaka-c.ed.jp/ohkanmuri/,大阪府高槻市大塚町4-50-1,公立,共学校,普通科,072-672-3450,34.818971,135.628921,阪急京都線「高槻市」・JR「高槻」から京阪バス「大塚」下車約300ｍ／「竹ノ内町」下車約100ｍ,普通科,,,,,
184,大正白稜高等学校,たいしょうはくりょうこうとうがっこう,https://www.osaka-c.ed.jp/taishohakuryo/,大阪府大阪市大正区大正区泉尾3丁目19-50,公立,共学校,総合学科,06-6552-0026,34.658568,135.470078,JR環状線「大正」：南西1200ｍ／大阪シティバス「永楽橋筋」西300ｍ,総合学科,,,,,
185,高石高等学校,たかいしこうとうがっこう,https://www.osaka-c.ed.jp/takaishi/,大阪府高石市千代田6-12-1,公立,共学校,普通科,072-265-1941,34.518694,135.423367,南海本線「北助松」北西約800ｍ,普通科,,,,,
186,高槻北高等学校,たかつききたこうとうがっこう,https://www.osaka-c.ed.jp/takatsukikita/,大阪府高槻市別所本町36-3,公立,共学校,普通科,072-683-8739,34.865745,135.62545,阪急京都線「高槻市」・JR「高槻」から高槻市バス「別所本町公園北」下車約300ｍ,普通科,,,,,
187,中央高等学校,ちゅうおうこうとうがっこう,https://www3.osaka-c.ed.jp/chuo,大阪府大阪市中央区釣鐘町1-1-5,公立,共学校,普通科、ビジネス科,06-6944-4401,34.688195,135.516384,大阪メトロ谷町線「天満橋」南80ｍ／京阪「天満橋」南200ｍ,普通科,ビジネス科,,,,
188,槻の木高等学校,つきのきこうとうがっこう,https://www.osaka-c.ed.jp/tsukinoki/,大阪府高槻市城内町2-13,公立,共学校,普通科単位制,072-675-2600,34.843128,135.620605,阪急京都線「高槻市」南約700ｍ／JR「高槻」南約1ｋｍ,普通科単位制,,,,,
189,鶴見商業高等学校,つるみしょうぎょうこうとうがっこう,https://www3.osaka-c.ed.jp/tsurumi-b/,大阪府大阪市鶴見区緑2-10-9,公立,共学校,商業科,06-6911-0415,34.709353,135.566507,大阪メトロ今里筋線「新森古市」南東1300ｍ／長堀鶴見緑地線「今福鶴見」北東1500ｍ／京阪本線「関目」東1900ｍ／大阪市バス「鶴見六丁目」東600ｍ,商業科,,,,,
190,天王寺高等学校,てんのうじこうとうがっこう,https://www2.osaka-c.ed.jp/tennoji/,大阪府大阪市阿倍野区三明町2-4-23,公立,共学校,文理学科,06-6629-6801,34.639524,135.521035,JR阪和線「美章園」西300ｍ／近鉄南大阪線「河堀口」南西400ｍ／大阪メトロ谷町線「文の里」北東700ｍ,文理学科,,,,,
191,豊島高等学校,としまこうとうがっこう,https://www.osaka-c.ed.jp/teshima/,大阪府豊中市北緑丘3-2-1,公立,共学校,普通科,06-6849-7651,34.816649,135.485476,北大阪急行「千里中央」・阪急宝塚線「豊中」から阪急バス「豊島高校前」,普通科,,,,,
192,刀根山高等学校,とねやまこうとうがっこう,https://www.osaka-c.ed.jp/toneyama/,大阪府豊中市刀根山6-9-1,公立,共学校,普通科,06-6843-3781,34.798736,135.453218,阪急宝塚線・大阪モノレール「蛍池」駅北東約700ｍ／大阪モノレール「柴原阪大前」南西約900ｍ,普通科,,,,,
193,登美丘高等学校,とみおかこうとうがっこう,https://www.osaka-c.ed.jp/tomioka/,大阪府堺市東区西野51,公立,共学校,普通科,072-236-5041,34.519041,135.540453,南海高野線「北野田」南西650ｍ,普通科,,,,,
194,豊中高等学校,とよなかこうとうがっこう,https://www2.osaka-c.ed.jp/toyonaka/,大阪府豊中市上野西2-5-12,公立,共学校,文理学科,06-6854-1207,34.795783,135.470547,阪急宝塚線「豊中」北東徒歩約15分／大阪モノレール「少路」南西徒歩約15分／阪急宝塚線「豊中」・北大阪急行「千里中央」・「桃山台」から阪急バス「豊中高校前」下車,文理学科,,,,,
195,豊中高等学校能勢分校,とよなかこうとうがっこうのせぶんこう,http://www.nose-highschool.ed.jp/bunkou/,大阪府豊能郡能勢町上田尻580,公立,共学校,総合学科,072-737-0666,34.97264,135.447927,能勢電鉄「山下」から阪急バス「口山内」下車／能勢電鉄「妙見口」から阪急バス「奥山内」下車500ｍ,総合学科,,,,,
196,富田林高等学校,とんだばやしこうとうがっこう,https://tonko.ed.jp/,大阪府富田林市谷川町4-30,公立,共学校,普通科,0721-23-2281,34.497563,135.599161,近鉄長野線「富田林西口」南へ500ｍ,普通科,,,,,
197,長尾高等学校,ながおこうとうがっこう,https://www.nagaohighschool.com/,大阪府枚方市長尾家具町5-1-1,公立,共学校,普通科,072-855-1700,34.837512,135.702288,京阪「樟葉」から京阪バス「ポエムノール北山」下車3分／JR「長尾」から京阪バス「ポエムノ－ル北山」下車3分,普通科,,,,,
198,長野高等学校,ながのこうとうがっこう,https://www.osaka-c.ed.jp/nagano/,大阪府河内長野市原町2丁目1-1,公立,共学校,普通科、国際教養科,0721-53-7371,34.459546,135.563345,南海高野線「千代田」南西約800ｍ／近鉄長野線「河内長野」北西約1．2ｋｍ,普通科,国際教養科,,,,
199,長吉高等学校,ながよしこうとうがっこう,https://www.osaka-c.ed.jp/nagayoshi/,大阪府大阪市平野区長吉長原西3-11-33,公立,共学校,総合学科（エンパワメントスクール）,06-6790-0700,34.599151,135.566701,大阪メトロ谷町線「長原」西約1．1ｋｍ・「出戸」南1．5ｋｍ／「出戸」から大阪市バス「長吉高校前」下車,総合学科（エンパワメントスクール）,,,,,
200,西成高等学校,にしなりこうとうがっこう,https://www.osaka-c.ed.jp/nishinari/,大阪府大阪市西成区津守1-13-10,公立,共学校,総合学科（ステップスクール）,06-6562-5751,34.647536,135.482016,南海汐見橋線「津守」すぐ／大阪市バス「鶴見橋通」西200ｍ,総合学科（ステップスクール）,,,,,
201,西寝屋川高等学校,にしねやがわこうとうがっこう,https://www.osaka-c.ed.jp/nishineyagawa/,大阪府寝屋川市葛原2-19-1,公立,共学校,普通科,072-828-6700,34.771726,135.601583,京阪「寝屋川市」からバス「対馬江」徒歩10分,普通科,,,,,
202,西野田工科高等学校,にしのだこうかこうとうがっこう,https://www.osaka-c.ed.jp/nishinoda-t/,大阪府大阪市福島区大開2-17-62,公立,共学校,工業に関する学科【機械系・電気系・建築都市工学系・工業デザイン系】,06-6461-0023,34.693644,135.469117,阪神電鉄本線「野田」西300ｍ／大阪メトロ千日前線「野田阪神」西300ｍ／JR東西線「海老江」西300ｍ,工業に関する学科【機械系・電気系・建築都市工学系・工業デザイン系】,,,,,
203,寝屋川高等学校,ねやがわこうとうがっこう,https://www.osaka-c.ed.jp/neyagawa/,大阪府寝屋川市本町15-64,公立,共学校,普通科,072-821-0546,34.765097,135.625773,京阪「寝屋川市」東500ｍ,普通科,,,,,
204,農芸高等学校,のうげいこうとうがっこう,https://www.osaka-c.ed.jp/nogei/,大阪府堺市美原区北余部595-1,公立,共学校,農業に関する学科【ハイテク農芸・食品加工・資源動物】,072-361-0581,34.537874,135.551695,南海高野線「初芝」から南海バス「農芸高校前」下車東100ｍ／近鉄南大阪線「河内松原」から近鉄バス「余部」下車西100ｍ,農業に関する学科【ハイテク農芸・食品加工・資源動物】,,,,,
205,野崎高等学校,のざきこうとうがっこう,https://www.osaka-c.ed.jp/nozaki/,大阪府大東市寺川1-2-1,公立,共学校,普通科,072-874-0911,34.709437,135.641707,JR学研都市線「野崎」南1．2ｋｍ／近鉄バス「寺川」下車,普通科,,,,,
206,伯太高等学校,はかたこうとうがっこう,https://www.osaka-c.ed.jp/hakata/,大阪府和泉市伯太町2-4-11,公立,共学校,総合学科,0725-45-9321,34.490859,135.433551,JR阪和線「和泉府中」北東約1ｋｍ,総合学科,,,,,
207,花園高等学校,はなぞのこうとうがっこう,https://www.osaka-c.ed.jp/hanazono/,大阪府東大阪市花園東町3-1-25,公立,共学校,普通科、国際教養科,072-961-4925,34.65879,135.623373,近鉄奈良線「東花園」南へ約400ｍ,普通科,国際教養科,,,,
208,汎愛高等学校,はんあいこうとうがっこう,https://www3.osaka-c.ed.jp/han-ai,大阪府大阪市鶴見区今津中2-1-52,公立,共学校,普通科、体育科、武道科,06-6961-0431,34.69299,135.570222,JR学研都市線「放出」北東1．2ｋｍ／大阪シティバス「汎愛高校前」,普通科,体育科,武道科,,,
209,阪南高等学校,はんなんこうとうがっこう,https://www.osaka-c.ed.jp/hannan/,大阪府大阪市住吉区庭井2-18-81,公立,共学校,普通科,06-6692-0356,34.595355,135.517462,大阪メトロ御堂筋線「あびこ」東南東540ｍ,普通科,,,,,
210,東大阪市立日新高等学校,ひがしおおさかしりつにっしんこうとうがっこう,https://school.higashiosaka-osk.ed.jp/nisshin-h/,大阪府東大阪市日下町7-9-11,公立,共学校,英語科、普通科、商業科,072-985-5551,34.694743,135.651717,近鉄奈良線「石切」北西1，6Ｋｍ／近鉄東大阪線「新石切」、JR学研都市線「住道」より近鉄バス「孔舎衙小学校前」下車、東へ1，2Ｋｍ,英語科,普通科,商業科,,,
211,東高等学校,ひがしこうとうがっこう,https://www3.osaka-c.ed.jp/higashi,大阪府大阪市都島区東野田町4-15-14,公立,共学校,普通科、理数科、英語科,06-6354-1251,34.699571,135.529104,JR環状線・学研都市線・京阪「京橋」北西700ｍ／JR東西線「大阪城北詰」北800ｍ／大阪メトロ鶴見緑地線「京橋」北西500ｍ／市バス「都島区役所前」「東野田」200ｍ,普通科,理数科,英語科,,,
212,東住吉高等学校,ひがしすみよしこうとうがっこう,https://www.osaka-c.ed.jp/higashisumiyoshi/,大阪府大阪市平野区平野西2-3-77,公立,共学校,普通科、芸能文化科,06-6702-3838,34.617153,135.54143,大阪メトロ谷町線「駒川中野」南東約1100ｍ￥「平野」南西約1100ｍ／近鉄南大阪線「針中野」東約900ｍ,普通科,芸能文化科,,,,
213,東住吉総合高等学校,ひがしすみよしそうごうこうとうがっこう,https://www.osaka-c.ed.jp/higashisumiyoshi-t/,大阪府大阪市平野区喜連西2-11-66,公立,共学校,総合学科（クリエイティブスクール）,06-6702-1231,34.613523,135.544397,大阪メトロ谷町線「喜連瓜破」北西約1ｋｍ／近鉄南大阪線「針中野」東南約1．5ｋｍ,総合学科（クリエイティブスクール）,,,,,
214,東百舌鳥高等学校,ひがしもずこうとうがっこう,https://www.osaka-c.ed.jp/higashimozu/,大阪府堺市中区土塔町2377-5,公立,共学校,普通科,072-235-3781,34.535409,135.512236,南海高野線「初芝」南西1，8Ｋｍ・「中百舌鳥」または「北野田」より南海バス「大野芝」下車西500ｍ／泉北高速鉄道「深井」北東1，6Ｋｍ,普通科,,,,,
215,東淀川高等学校,ひがしよどがわこうとうがっこう,https://www.osaka-c.ed.jp/higashiyodogawa/,大阪府大阪市淀川区宮原4-4-5,公立,共学校,普通科,06-6391-2427,34.736117,135.497612,大阪メトロ御堂筋線「新大阪」徒歩4分・JR「新大阪」徒歩10分,普通科,,,,,
216,東淀工業高等学校,ひがしよどこうぎょうこうとうがっこう,https://www3.osaka-c.ed.jp/higashiyodo-t,大阪府大阪市淀川区加島1-52-81,公立,共学校,機械工学科、電気工学科、理工学科,06-6302-1035,34.725716,135.462204,JR東西線「加島」東800ｍ／大阪市バス・阪急バス「東淀工業高校前」西300ｍ,機械工学科,電気工学科,理工学科,,,
217,日根野高等学校,ひねのこうとうがっこう,https://www.osaka-c.ed.jp/hineno/,大阪府泉佐野市日根野2372-1,公立,共学校,普通科,072-467-1555,34.39132,135.338194,JR阪和線「日根野」北東約800ｍ,普通科,,,,,
218,枚岡樟風高等学校,ひらおかしょうふうこうとうがっこう,https://www.osaka-c.ed.jp/hiraokashofu/,大阪府東大阪市鷹殿町18-1,公立,共学校,総合学科,072-982-5437,34.668209,135.635904,近鉄「奈良線」瓢箪山北900ｍ／近鉄けいはんな線「新石切」バス「東体育館前」下車約150ｍ,総合学科,,,,,
219,枚方高等学校,ひらかたこうとうがっこう,https://www.osaka-c.ed.jp/hirakata/,大阪府枚方市大垣内町3-16-1,公立,共学校,普通科、国際教養科,072-843-3081,34.810759,135.655014,京阪「枚方市」南南東800ｎ,普通科,国際教養科,,,,
220,枚方津田高等学校,ひらかたつだこうとうがっこう,https://www.osaka-c.ed.jp/hirakatatsuda/,大阪府枚方市津田北町2-50-1,公立,共学校,普通科,072-858-7003,34.813186,135.703453,JR学研都市線「藤阪」南東300ｍ,普通科,,,,,
221,枚方なぎさ高等学校,ひらかたなぎさこうとうがっこう,https://www.osaka-c.ed.jp/hirakatanagisa/,大阪府枚方市磯島元町20-1,公立,共学校,総合学科,072-847-1001,34.82506,135.648208,京阪「御殿山」南約600ｍ・「枚方市」北約1．2ｋｍ／京阪バス［磯島］北300ｍ,総合学科,,,,,
222,福井高等学校,ふくいこうとうがっこう,https://www.osaka-c.ed.jp/fukui/,大阪府茨木市西福井3-33-11,公立,共学校,総合学科,072-641-4361,34.8459,135.550128,JR「茨木」・阪急「茨木市」から阪急バス「福井」北西420ｍ,総合学科,,,,,
223,福泉高等学校,ふくいずみこうとうがっこう,https://www.osaka-c.ed.jp/fukuizumi/,大阪府堺市西区太平寺323,公立,共学校,普通科,072-299-9500,34.505271,135.480107,JR阪和線「鳳」／泉北高速鉄道「栂・美木多」から南海バス「福泉高校前」下車東200ｍ,普通科,,,,,
224,藤井寺工科高等学校,ふじいでらこうかこうとうがっこう,https://www.osaka-c.ed.jp/fujiidera-t/,大阪府藤井寺市御舟町10-1,公立,共学校,工業に関する学科【機械系・電気系・メカトロニクス系】,072-955-0281,34.573118,135.601375,近鉄南大阪線「藤井寺」東500ｍ,工業に関する学科【機械系・電気系・メカトロニクス系】,,,,,
225,藤井寺高等学校,ふじいでらこうとうがっこう,https://www.osaka-c.ed.jp/fujiidera/,大阪府藤井寺市津堂3-516,公立,共学校,普通科,072-939-7750,34.583136,135.583481,近鉄南大阪線「藤井寺」北西2．2ｋｍ・「高鷲」北1．6ｋｍ／大阪メトロ谷町線「八尾南」南西2．8ｋｍ・「長原」南2．5ｋｍ／近鉄バス「大正橋南詰」西800ｍ,普通科,,,,,
226,布施北高等学校,ふせきたこうとうがっこう,https://www.osaka-c.ed.jp/fusekita/,大阪府東大阪市荒本西1-2-72,公立,共学校,総合学科（エンパワメントスクール）,06-6787-2666,34.671809,135.60097,近鉄けいはんな線「荒本」南へ約1ｋｍ／近鉄奈良線「若江岩田」北西約1．4ｋｍ,総合学科（エンパワメントスクール）,,,,,
227,布施工科高等学校,ふせこうかこうとうがっこう,https://www.osaka-c.ed.jp/fuse-t/,大阪府東大阪市宝持3-7-5,公立,共学校,工業に関する学科【機械系・電気系・建築設備系】,06-6722-0221,34.654329,135.592683,近鉄奈良線「八戸ノ里」徒歩15分・近鉄バス「宝持」下車東3分,工業に関する学科【機械系・電気系・建築設備系】,,,,,
228,布施高等学校,ふせこうとうがっこう,https://www.osaka-c.ed.jp/fuse/,大阪府東大阪市下小阪3-14-21,公立,共学校,普通科,06-6723-7500,34.661893,135.587245,近鉄奈良線「八戸ノ里」約200ｍ,普通科,,,,,
229,北摂つばさ高等学校,ほくせつつばさこうとうがっこう,https://www2.osaka-c.ed.jp/hokusetsutsubasa/index.html,大阪府茨木市玉島台2-15,公立,共学校,普通科,072-633-2000,34.80178,135.584805,阪急京都線「茨木市」・JR「茨木」から近鉄バス「北摂つばさ高校前」下車、阪急京都線「南茨木」・大阪モノレール「南茨木駅」から東へ2ｋｍ,普通科,,,,,
230,牧野高等学校,まきのこうとうがっこう,https://www.osaka-c.ed.jp/makino/,大阪府枚方市南船橋1-11-1,公立,共学校,普通科,072-851-1050,34.846821,135.680179,京阪「牧野」北東1500ｍ／「樟葉」から京阪バス「関西記念病院前」下車西へ300ｍ,普通科,,,,,
231,松原高等学校,まつばらこうとうがっこう,https://www.osaka-c.ed.jp/matsubara/,大阪府松原市三宅東3-4-1,公立,共学校,総合学科,072-334-8008,34.590701,135.562746,近鉄南大阪線「河内松原」「河内天美」それぞれ2．5ｋｍ／大阪メトロ谷町線［喜連瓜破］［出戸］［長原］それぞれ2．5ｋｍ,総合学科,,,,,
232,三国丘高等学校,みくにがおかこうとうがっこう,https://www.osaka-c.ed.jp/mikunigaoka/,大阪府堺市堺区南三国ｹ丘町2-2-36,公立,共学校,文理学科,072-233-6005,34.573351,135.489273,南海高野線「堺東」東300ｍ／南海本線「天下茶屋」6分／南海高野線「難波」12分・「河内長野」15分／大阪メトロ堺筋線「南森町」25分,文理学科,,,,,
233,岬高等学校,みさきこうとうがっこう,https://www.osaka-c.ed.jp/misaki/,大阪府泉南郡岬町淡輪3246,公立,共学校,総合学科（ステップスクール）,072-494-0301,34.322694,135.170981,南海本線「みさき公園」東約1000ｍ,総合学科（ステップスクール）,,,,,
234,三島高等学校,みしまこうとうがっこう,https://www.osaka-c.ed.jp/mishima/,大阪府高槻市今城町27-1,公立,共学校,普通科,072-682-5884,34.845791,135.597999,JR「摂津富田」北東1．6ｋｍ・JR京都線「高槻」高槻駅北から高槻市バス「明治大阪工場前」下車約600ｍ,普通科,,,,,
235,みどり清朋高等学校,みどりせいほうこうとうがっこう,https://www.osaka-c.ed.jp/midoriseiho/,大阪府東大阪市池島町6-3-9,公立,共学校,普通科,072-987-3302,34.64652,135.627758,近鉄大阪線「山本」から近鉄バス「北山本」東1，1Ｋｍ／近鉄奈良線「東花園」南2ｋｍ・「河内花園」から近鉄バス「北山本」下車東1，1Ｋｍ,普通科,,,,,
236,港高等学校,みなとこうとうがっこう,https://www.osaka-c.ed.jp/minato/,大阪府大阪市港区波除2-3-1,公立,共学校,普通科,06-6583-1401,34.671734,135.46523,JR環状線・大阪メトロ中央線「弁天町」東約5分300ｍ,普通科,,,,,
237,箕面高等学校,みのおこうとうがっこう,https://www.osaka-c.ed.jp/minoo/,大阪府箕面市牧落4-8-66,公立,共学校,普通科、グローバル科,072-721-7091,34.820557,135.474494,阪急宝塚線「豊中」から阪急バス「永楽荘4丁目」／大阪モノレール「豊川」駅から阪急バス「箕面高校前」下車すぐ,普通科,グローバル科,,,,
238,箕面東高等学校,みのおひがしこうとうがっこう,https://www.osaka-c.ed.jp/minoohigashi/,大阪府箕面市粟生外院5-4-63,公立,共学校,総合学科（エンパワメントスクール）,072-729-4008,34.843015,135.505667,阪急千里線「北千里」・北大阪急行「千里中央」・阪急箕面線「箕面」阪急バス「粟生団地」下車徒歩5分,総合学科（エンパワメントスクール）,,,,,
239,都島工業高等学校,みやこじまこうぎょうこうとうがっこう,https://www3.osaka-c.ed.jp/miyakojima-t,大阪府大阪市都島区善源寺町1-5-64,公立,共学校,機械科、機械電気科、電気電子工学科、建築科、都市工学科、理数工学科,06-6921-0231,34.709766,135.52515,大阪メトロ谷町線「都島」西50ｍ／JR環状線「桜ノ宮」北東約1ｋｍ,機械科,機械電気科,電気電子工学科,建築科,都市工学科,理数工学科
240,桃谷高等学校,ももだにこうとうがっこう,https://www.osaka-c.ed.jp/momodani/,大阪府大阪市生野区勝山南3-1-4,公立,共学校,多部制単位制１・２部【普通科】,06-6712-0371,34.653331,135.533332,JR環状線「桃谷」南東800ｍ,多部制単位制１・２部【普通科】,,,,,
241,守口東高等学校,もりぐちひがしこうとうがっこう,https://www.osaka-c.ed.jp/moriguchihigashi/,大阪府守口市八雲中町2-1-32,公立,共学校,普通科,06-6906-8211,34.745443,135.567009,大阪メトロ谷町線「守口」北東800ｍ／京阪「守口市」北東1200ｍ,普通科,,,,,
242,八尾北高等学校,やおきたこうとうがっこう,https://www.osaka-c.ed.jp/yaokita/,大阪府八尾市萱振町7-42,公立,共学校,総合学科,072-998-2100,34.642638,135.604586,近鉄大阪線「八尾」北1．2ｋｍ／JR大和路線「八尾」から近鉄バス・近鉄奈良線「若江岩田」から近鉄バス・JR学研都市線「住道」から近鉄バス「八尾北高校前」下車100ｍ,総合学科,,,,,
243,八尾高等学校,やおこうとうがっこう,https://www.osaka-c.ed.jp/yao/,大阪府八尾市高町1-74,公立,共学校,普通科,072-923-4261,34.623795,135.594639,近鉄大阪線「八尾」南西1100ｍ／JR大和路線「八尾」北へ670ｍ,普通科,,,,,
244,八尾翠翔高等学校,やおすいしょうこうとうがっこう,https://www.osaka-c.ed.jp/yaosuisho/,大阪府八尾市神宮寺3-107,公立,共学校,普通科,072-943-8107,34.601285,135.627536,近鉄大阪線「法善寺」北700ｍ・「恩智」南800ｍ／JR大和路線「志紀」東1300ｍ,普通科,,,,,
245,山田高等学校,やまだこうとうがっこう,https://www.osaka-c.ed.jp/yamada/,大阪府吹田市山田東3-28-1,公立,共学校,普通科,06-6875-5010,34.802633,135.528993,大阪モノレール「万博記念公園」南600ｍ,普通科,,,,,
246,山本高等学校,やまもとこうとうがっこう,https://www.osaka-c.ed.jp/yamamoto/,大阪府八尾市山本町北1-1-44,公立,共学校,普通科,072-999-0552,34.634326,135.619174,近鉄大阪線「河内山本」北800ｍ／,普通科,,,,,
247,夕陽丘高等学校,ゆうひがおかこうとうがっこう,https://www.osaka-c.ed.jp/yuhigaoka/,大阪府大阪市天王寺区北山町10-10,公立,共学校,普通科、音楽科,06-6771-0665,34.659073,135.522085,JR環状線「桃谷」西500ｍ／大阪メトロ谷町線「四天王寺前夕陽ケ丘」東約900ｍ／近鉄「上本町」南東約1ｋｍ／JR環状線・近鉄・大阪メトロ千日前線「鶴橋」南西約1．2ｋｍ,普通科,音楽科,,,,
248,淀川工科高等学校,よどがわこうかこうとうがっこう,https://www.osaka-c.ed.jp/yodogawa-t/,大阪府大阪市旭区太子橋3-1-32,公立,共学校,工業に関する学科【機械系・電気系・メカトロニクス系・工学系】,06-6952-0001,34.737213,135.559916,京阪「守口市」北西500ｍ／大阪メトロ谷町線「守口」西300ｍ,工業に関する学科【機械系・電気系・メカトロニクス系・工学系】,,,,,
249,淀川清流高等学校,よどがわせいりゅうこうとうがっこう,https://www.osaka-c.ed.jp/yodogawaseiryu/,大阪府大阪市東淀川区豊里2丁目11-35,公立,共学校,総合学科（エンパワメントスクール）,06-6328-2331,34.739743,135.536606,阪急京都線「上新庄」南東約1000ｍ／大阪メトロ今里筋線「だいどう豊里」南西約1000ｍ,総合学科（エンパワメントスクール）,,,,,
250,淀商業高等学校,よどしょうぎょうこうとうがっこう,https://www3.osaka-c.ed.jp/yodo-b,大阪府大阪市西淀川区野里3-3-15,公立,共学校,商業科、福祉ボランティア科,06-6474-2221,34.709957,135.458893,JR東西線「御幣島」南東250ｍ／JR神戸線「塚本」西800ｍ／阪神電鉄「姫島」北東550ｍ,商業科,福祉ボランティア科,,,,
251,緑風冠高等学校,りょくふうかんこうとうがっこう,https://www.osaka-c.ed.jp/ryokufukan/,大阪府大東市深野4-12-1,公立,共学校,普通科,072-871-5473,34.717307,135.629115,JR学研都市線「野崎」西1000ｍ,普通科,,,,,
252,りんくう翔南高等学校,りんくうしょうなんこうとうがっこう,https://www2.osaka-c.ed.jp/rinkushonan/,大阪府泉南市樽井2-35-54,公立,共学校,普通科,072-483-4474,34.368065,135.264879,南海本線「樽井」南東700ｍ／JR阪和線「和泉砂川」北西1，8ｋｍ,普通科,,,,,
253,和泉総合高等学校,いずみそうごうこうとうがっこう,https://www.osaka-c.ed.jp/izumi-t/,大阪府和泉市冨秋町1-14-4,公立,共学校,定時制【総合学科】,0725-41-1250,34.504034,135.431263,JR阪和線「信太山」北西500ｍ／南海本線「北助松」南東1．9ｋｍ,定時制【総合学科】,,,,,
254,茨木工科高等学校,いばらきこうかこうとうがっこう,https://www.osaka-c.ed.jp/ibaraki-t/,大阪府茨木市春日5-6-41,公立,共学校,定時制【総合学科】,072-623-1331,34.825189,135.564304,JR「茨木」北1．1ｋｍ・「総持寺」西1．1ｋｍ／阪急「茨木市」北西約1．8ｋｍ／阪急バス「春日」下車東300ｍ「上穂積」下車北東500ｍ,定時制【総合学科】,,,,,
255,今宮工科高等学校,いまみやこうかこうとうがっこう,https://www.osaka-c.ed.jp/imamiya-t/,大阪府大阪市西成区出城1-1-6,公立,共学校,定時制【総合学科】,06-6631-0055,34.65026,135.496286,JR環状線・南海本線「新今宮」西400ｍ／大阪メトロ御堂筋線・四つ橋線「大国町」南600ｍ／大阪メトロ堺筋線「動物園前」西600ｍ／大阪メトロ四ツ橋線「花園」北600ｍ,定時制【総合学科】,,,,,
256,大手前高等学校,おおてまえこうとうがっこう,https://www.osaka-c.ed.jp/otemae/,大阪府大阪市中央区大手前2-1-11,公立,共学校,定時制【普通科】,06-6941-0051,34.687256,135.519837,大阪メトロ谷町線「天満橋」3番出口東南400ｍ／京阪「天満橋」3番出口東南500ｍ／大阪市バス「大手前」,定時制【普通科】,,,,,
257,春日丘高等学校,かすがおかこうとうがっこう,https://www.osaka-c.ed.jp/kasugaoka/,大阪府茨木市春日2丁目1番2号,公立,共学校,定時制【普通科】,072-623-2062,34.818483,135.56093,JR「茨木」北西約300ｍ／阪急京都線「茨木市」西約1400ｍ／大阪モノレール「宇野辺」北約1300ｍ,定時制【普通科】,,,,,
258,岸和田市立産業高等学校,きしわだしりつさんぎょうこうとうがっこう,http://www.kishisan-h.ed.jp/,大阪府岸和田市別所町3-33-1,公立,共学校,定時制【商業科】,072-422-4861,34.460496,135.389444,南海本線「岸和田」東1200ｍ／JR阪和線「下松」西800ｍ,定時制【商業科】,,,,,
259,工芸高等学校,こうげいこうとうがっこう,https://www3.osaka-c.ed.jp/kogei-t-p,大阪府大阪市阿倍野区文の里1-7-2,公立,共学校,定時制【総合学科】,06-6623-0150,34.637883,135.518871,大阪メトロ谷町線「文の里」北200ｍ／御堂筋線「昭和町」北500ｍ／JR阪和線「美章園」西500ｍ,定時制【総合学科】,,,,,
260,堺工科高等学校,さかいこうかこうとうがっこう,https://www.osaka-c.ed.jp/sakai-t/,大阪府堺市堺区大仙中町12-1,公立,共学校,定時制【総合学科】,072-241-1401,34.562269,135.476997,JR阪和線「百舌鳥」西1．2ｋｍ／南海高野線「堺東」南1．6ｋｍ・南海バス「工業高校前」下車,定時制【総合学科】,,,,,
261,堺公立堺高等学校,さかいしりつさかいこうとうがっこう,http://www.sakai.ed.jp/sakai-hs/,大阪府堺市堺区向陵東町1-10-1,公立,共学校,定時制【工業に関する学科・マネジメント創造科】,072-240-0841,34.563924,135.496654,JR阪和線・南海高野線「三国ヶ丘」東約500ｍ／南海高野線「百舌鳥八幡」北約500ｍ,定時制【工業に関する学科・マネジメント創造科】,,,,,
262,桜塚高等学校,さくらづかこうとうがっこう,https://www.osaka-c.ed.jp/sakurazuka/,大阪府豊中市中桜塚4-1-1,公立,共学校,定時制【普通科】,06-6853-2244,34.782382,135.472353,阪急宝塚線「岡町」東800ｍ,定時制【普通科】,,,,,
263,佐野工科高等学校,さのこうかこうとうがっこう,https://www.osaka-c.ed.jp/sano-t/,大阪府泉佐野市高松東1-3-50,公立,共学校,定時制【総合学科】,072-462-2772,34.406355,135.316897,南海本線「泉佐野」南東500ｍ,定時制【総合学科】,,,,,
264,成城高等学校,せいじょうこうとうがっこう,https://www.osaka-c.ed.jp/seijo-t/,大阪府大阪市城東区諏訪3-11-41,公立,共学校,定時制【総合学科】,06-6962-2801,34.682158,135.562147,大阪メトロ中央線「深江橋」北東約500ｍ／JR学研都市線・おおさか東線「放出」南約1200ｍ／JRおおさか東線「高井田中央」西約1300ｍ,定時制【総合学科】,,,,,
265,第二工芸高等学校,だいにこうげいこうとうがっこう,https://www3.osaka-c.ed.jp/kogei-t-p,大阪府大阪市阿倍野区文の里1-7-2,公立,共学校,定時制【インテリア科・クラフト科・デザイン科】,06-6623-0150,34.637883,135.518871,大阪メトロ谷町線「文の里」北200ｍ／御堂筋線「昭和町」北500ｍ／JR阪和線「美章園」西500ｍ,定時制【インテリア科・クラフト科・デザイン科】,,,,,
266,西野田工科高等学校,にしのだこうかこうとうがっこう,https://www.osaka-c.ed.jp/nishinoda-t/,大阪府大阪市福島区大開2-17-62,公立,共学校,定時制【総合学科】,06-6461-0023,34.693644,135.469117,阪神電鉄本線「野田」西300ｍ／大阪メトロ千日前線「野田阪神」西300ｍ／JR東西線「海老江」西300ｍ,定時制【総合学科】,,,,,
267,寝屋川高等学校,ねやがわこうとうがっこう,https://www.osaka-c.ed.jp/neyagawa/,大阪府寝屋川市本町15-64,公立,共学校,定時制【普通科】,072-821-0546,34.765097,135.625773,京阪「寝屋川市」東500ｍ,定時制【普通科】,,,,,
268,藤井寺工科高等学校,ふじいでらこうかこうとうがっこう,https://www.osaka-c.ed.jp/fujiidera-t/,大阪府藤井寺市御舟町10-1,公立,共学校,定時制【総合学科】,072-955-0281,34.573118,135.601375,近鉄南大阪線「藤井寺」東500ｍ,定時制【総合学科】,,,,,
269,布施高等学校,ふせこうとうがっこう,https://www.osaka-c.ed.jp/fuse/,大阪府東大阪市下小阪3-14-21,公立,共学校,定時制【普通科】,06-6723-7500,34.661893,135.587245,近鉄奈良線「八戸ノ里」約200ｍ,定時制【普通科】,,,,,
270,三国丘高等学校,みくにがおかこうとうがっこう,https://www.osaka-c.ed.jp/mikunigaoka/,大阪府堺市堺区南三国ｹ丘町2-2-36,公立,共学校,定時制【普通科】,072-233-6005,34.573351,135.489273,南海高野線「堺東」東300ｍ／南海本線「天下茶屋」6分／南海高野線「難波」12分・「河内長野」15分／大阪メトロ堺筋線「南森町」25分,定時制【普通科】,,,,,
271,都島工業高等学校,みやこじまこうぎょうこうとうがっこう,https://www3.osaka-c.ed.jp/miyakojima-t-p,大阪府大阪市都島区善源寺町1-5-64,公立,共学校,定時制【総合学科】,06-6921-4236,34.709766,135.52515,大阪メトロ谷町線「都島」西50ｍ／JR環状線「桜ノ宮」北東約1ｋｍ,定時制【総合学科】,,,,,
272,都島第二工業高等学校,みやこじまだいにこうぎょうこうとうがっこう,https://www3.osaka-c.ed.jp/miyakojima-t-p,大阪府大阪市都島区善源寺町1-5-64,公立,共学校,定時制【普通科・機械科・電気科・建築科・都市工学科】,06-6921-4236 ,34.709766,135.52515,大阪メトロ谷町線「都島」西50ｍ／JR環状線「桜ノ宮」北東約1ｋｍ,定時制【普通科・機械科・電気科・建築科・都市工学科】,,,,,
273,桃谷高等学校,ももだにこうとうがっこう,https://www.osaka-c.ed.jp/momodani/,大阪府大阪市生野区勝山南3-1-4,公立,共学校,多部制単位制３部【普通科】,06-6712-0371,34.653331,135.533332,JR環状線「桃谷」南東800ｍ,多部制単位制３部【普通科】,,,,,
274,桃谷高等学校,ももだにこうとうがっこう,https://www.osaka-c.ed.jp/momodani/,大阪府大阪市生野区勝山南3-1-4,公立,共学校,通信制,06-6712-0371,34.653331,135.533332,JR環状線「桃谷」南東800ｍ,通信制,,,,,
275,生野支援学校,いくのしえんがっこう,https://www.osaka-c.ed.jp/ikuno-s/,大阪府大阪市生野区巽東4-2-47,公立,共学校,支援学校【知的障がい】,06-6758-3784,34.648712,135.559372,大阪メトロ千日前線「北巽」南750ｍ,支援学校【知的障がい】,,,,,
276,生野聴覚支援学校,いくのちょうかくしえんがっこう,https://www.osaka-c.ed.jp/ikuno-r/,大阪府大阪市生野区桃谷1-2-1,公立,共学校,支援学校【聴覚障がい】,06-6717-3366,34.66167,135.530076,大阪メトロ千日前線／近鉄大阪線／JR環状線「鶴橋」南約450ｍ／JR環状線「桃谷」北500ｍ,支援学校【聴覚障がい】,,,,,
277,和泉支援学校,いずみしえんがっこう,https://www.osaka-c.ed.jp/izumi-y/,大阪府和泉市池上町2-4-6,公立,共学校,支援学校【知的障がい】,0725-45-9555,34.49632,135.427687,JR阪和線「信太山」南西600ｍ,支援学校【知的障がい】,,,,,
278,茨木支援学校,いばらきしえんがっこう,https://www.osaka-c.ed.jp/ibaraki-y/,大阪府茨木市西福井4-5-5,公立,共学校,支援学校【肢体不自由・知肢併置】,072-643-6951,34.849455,135.548331,JR「茨木」・阪急京都線「茨木市」から阪急バス「福井宮の前」下車徒歩5分,支援学校【肢体不自由・知肢併置】,,,,,
279,大阪北視覚支援学校,おおさかきたしかくしえんがっこう,https://www.osaka-c.ed.jp/osakakita-s-s/,大阪府大阪市東淀川区豊里7-5-26,公立,共学校,支援学校【視覚障がい】,06-6328-7000,34.742897,135.542112,阪急京都線「上新庄」から大阪シティバス「大桐1丁目」下車西徒歩3分／JR「吹田」から京阪バス「大桐1丁目」下車徒歩3分／大阪メトロ今里筋線「だいどう豊里」西徒歩2分,支援学校【視覚障がい】,,,,,
280,交野支援学校,かたのしえんがっこう,https://www.osaka-c.ed.jp/katano-y/,大阪府交野市寺4-831,公立,共学校,支援学校【肢体不自由】,072-893-2445,34.784367,135.694369,京阪交野線「河内森」北東1．7ｋｍ／JR学研都市線「河内磐船」北東1．5ｋｎ,支援学校【肢体不自由】,,,,,
281,交野支援学校四條畷校,かたのしえんがっこうしじょうなわてこう,https://www.osaka-c.ed.jp/katano-sb/,大阪府四條畷市砂3-13-16,公立,共学校,支援学校【知的障がい】,072-879-8315,34.747839,135.634133,JR学研都市線「忍ヶ丘」西約1ｋｍ,支援学校【知的障がい】,,,,,
282,岸和田支援学校,きしわだしえんがっこう,https://www.osaka-c.ed.jp/kishiwada-y/,大阪府岸和田市土生町5-9-1,公立,共学校,支援学校【肢体不自由】,072-426-3033,34.445455,135.382882,JR阪和線「東岸和田」南西600ｍ,支援学校【肢体不自由】,,,,,
283,光陽支援学校,こうようしえんがっこう,https://www.osaka-c.ed.jp/koyo-s/,大阪府大阪市旭区新森6-8-21,公立,共学校,支援学校【肢体不自由・病弱部門併置】,06-6953-4022,34.718012,135.563695,京阪本線「森小路」東約1．1ｋｍ／大阪メトロ今里筋線「清水」南東約600ｍ,支援学校【肢体不自由・病弱部門併置】,,,,,
284,堺支援学校,さかいしえんがっこう,https://www.osaka-c.ed.jp/sakai-y/,大阪府堺市堺区東上野芝町1-71,公立,共学校,支援学校【肢体不自由・知肢併置】,072-241-0288,34.551247,135.476628,JR阪和線「百舌鳥」約600ｍ・JR「上野芝」約700ｍ,支援学校【肢体不自由・知肢併置】,,,,,
285,堺支援学校大手前分校,さかいしえんがっこうおおてぜんぶんこう,https://www.osaka-c.ed.jp/sakai-yb/,大阪府大阪市天王寺区筆ヶ崎町5-30,公立,共学校,支援学校【肢体不自由】,06-6776-5306,34.665143,135.525272,大阪メトロ千日前線／近鉄大阪線／JR環状線「鶴橋」西約500ｍ,支援学校【肢体不自由】,,,,,
286,堺聴覚支援学校,さかいちょうかくしえんがっこう,https://www.osaka-c.ed.jp/sakai-r/,大阪府堺市北区百舌鳥陵南町1,公立,共学校,支援学校【聴覚障がい】,072-257-5471,34.547496,135.487665,JR阪和線「上野芝」南東約1000ｍ,支援学校【聴覚障がい】,,,,,
287,佐野支援学校,さのしえんがっこう,https://www.osaka-c.ed.jp/sano-y/,大阪府泉佐野市日根野375,公立,共学校,支援学校【知的障がい】,072-467-2252,34.38219,135.346278,JR阪和線「日根野」南東約2ｋｍ／南海線「泉佐野」から南海ウイングバスバス「久の木」下車東900ｍ,支援学校【知的障がい】,,,,,
288,思斉支援学校,しせいしえんがっこう,https://www.osaka-c.ed.jp/shisei-s/,大阪府大阪市旭区大宮5-11-7,公立,共学校,支援学校【知的障がい】,06-6951-4063,34.730593,135.548451,大阪メトロ谷町線「太子橋今市」北西700ｍ,支援学校【知的障がい】,,,,,
289,吹田支援学校,すいたしえんがっこう,https://www.osaka-c.ed.jp/suita-y/,大阪府吹田市芳野町13-120,公立,共学校,支援学校【知的障がい】,06-6389-9520,34.756094,135.488592,大阪メトロ御堂筋線「江坂」西1ｋｍ／阪急バス「芳野町」下車南100ｍ,支援学校【知的障がい】,,,,,
290,すながわ高等支援学校,すながわこうとうしえんがっこう,https://www.osaka-c.ed.jp/sunagawa-ks/,大阪府泉南市信達牧野40-1,公立,共学校,支援学校【知的障がい（高等支援）】,072-485-3810,34.355766,135.280984,JR阪和線「和泉砂川」南700ｍ／南海本線「樽井」からコミュニティバス「府立支援学校前」下車すぐ／和歌山バス「樽井駅前」から乗車「砂川駅前」にて下車南約700ｍ,支援学校【知的障がい（高等支援）】,,,,,
291,住之江支援学校,すみのえしえんがっこう,https://www.osaka-c.ed.jp/suminoe-s/,大阪府大阪市住之江区緑木1-4-167,公立,共学校,支援学校【知的障がい】,06-6683-2622,34.61991,135.474025,大阪メトロ四つ橋線「北加賀屋」西約330ｍ,支援学校【知的障がい】,,,,,
292,摂津支援学校,せっつしえんがっこう,https://www.osaka-c.ed.jp/settsu-s/,大阪府摂津市鳥飼上1-1-15,公立,共学校,支援学校【知的障がい】,072-654-8911,34.785113,135.600554,阪急バス「上鳥飼」下車北東150ｍ／京阪バス「上鳥飼北」下車南東500ｍ／高槻市バス「柱本」下車南西1200ｍ,支援学校【知的障がい】,,,,,
293,泉南支援学校,せんなんしえんがっこう,https://www.osaka-c.ed.jp/sennan-s/,大阪府泉南市信達牧野40-1,公立,共学校,支援学校【知的障がい】,072-485-3801,34.355766,135.280984,JR阪和線「和泉砂川」南600ｍ／南海線樽井駅下車・コミュニティバス「府立支援学校前」下車すぐ,支援学校【知的障がい】,,,,,
294,泉北高等支援学校,せんほくこうとうしえんがっこう,https://www.osaka-c.ed.jp/semboku-y/,大阪府堺市南区原山台2-6,公立,共学校,支援学校【知的障がい】,072-298-2111,34.482674,135.489307,泉北高速鉄道「栂・美木多」南600ｍ,支援学校【知的障がい】,,,,,
295,だいせん聴覚高等支援学校,だいせんちょうかくこうとうしえんがっこう,https://www.osaka-c.ed.jp/daisen-hr/,大阪府堺市堺区大仙町1-1,公立,共学校,支援学校【聴覚障がい】,072-232-6761,34.565938,135.482978,JR阪和線・南海高野線「三国ヶ丘駅」西1200ｍ,支援学校【聴覚障がい】,,,,,
296,大阪南視覚支援学校,だいはんなんしかくしえんがっこう,https://www.osaka-c.ed.jp/mou/,大阪府大阪市住吉区山之内1-10-12,公立,共学校,支援学校【視覚障がい】,06-6693-3471,34.600864,135.503057,JR阪和線「我孫子町」南西400ｍ／南海高野線「我孫子前」東700ｍ,支援学校【視覚障がい】,,,,,
297,高槻支援学校,たかつきしえんがっこう,https://www2.osaka-c.ed.jp/takatsuki-y/,大阪府高槻市富田町1-33-17,公立,共学校,支援学校【知的障がい】,072-696-2836,34.834356,135.588941,JR「摂津富田」南西600ｍ／阪急京都線「富田」西400ｍ,支援学校【知的障がい】,,,,,
298,たまがわ高等支援学校,たまがわこうとうしえんがっこう,https://www2.osaka-c.ed.jp/tamagawa-ks/,大阪府東大阪市稲葉2-3-25,公立,共学校,支援学校【知的障がい（高等支援）】,072-961-4730,34.670221,135.618168,近鉄奈良線「河内花園」北1ｋｍ／近鉄けいはんな線「吉田」南1．5ｋｍ／近鉄バス萱島線「菱江」下車東700ｍ／・吉田線「稲葉町二丁目」下車東150ｍ,支援学校【知的障がい（高等支援）】,,,,,
299,中央聴覚支援学校,ちゅうおうちょうかくしえんがっこう,https://www.osaka-c.ed.jp/osakachuo-c-s/,大阪府大阪市中央区上町1-19-31,公立,共学校,支援学校【聴覚障がい】,06-6761-1419,34.677739,135.52325,大阪メトロ谷町線「谷町4丁目」南東約600ｍ・「谷町6丁目」北東約600ｍ,支援学校【聴覚障がい】,,,,,
300,刀根山支援学校,とねやましえんがっこう,https://www.osaka-c.ed.jp/toneyama-y/,大阪府豊中市刀根山5-1-1,公立,共学校,支援学校【病弱】,06-6853-0200,34.793176,135.45126,阪急宝塚線・大阪モノレール「蛍池」南東徒歩12分,支援学校【病弱】,,,,,
301,豊中支援学校,とよなかしえんがっこう,https://www.osaka-c.ed.jp/toyonaka-y/,大阪府豊中市北緑丘2-7-1,公立,共学校,支援学校【知的障がい】,06-6840-1801,34.818616,135.481119,北大阪急行・大阪モノレール「千里中央」・阪急宝塚線「豊中」から阪急バス「北緑丘小学校前」下車北300ｍ・「稲」下車南南500ｍ,支援学校【知的障がい】,,,,,
302,とりかい高等支援学校,とりかいこうとうしえんがっこう,https://www.osaka-c.ed.jp/torikai-ks/,大阪府摂津市鳥飼上1-1-15,公立,共学校,支援学校【知的障がい（高等支援）】,072-654-9235,34.785113,135.600554,阪急バス「上鳥飼」下車北東150ｍ／京阪バス「上鳥飼北」下車南東500ｍ／高槻市バス「柱本」下車南西1200ｍ,支援学校【知的障がい（高等支援）】,,,,,
303,富田林支援学校,とんだばやししえんがっこう,https://www.osaka-c.ed.jp/tondabayashi-y/,大阪府富田林市甘南備216,公立,共学校,支援学校【知的障がい】,0721-34-1675,34.454264,135.596647,近鉄長野線「富田林」から金剛バス「府立こんごう福祉センター前」下車200ｍ・「府立こんごう福祉センター東口」下車700ｍ,支援学校【知的障がい】,,,,,
304,中津支援学校,なかつしえんがっこう,https://www.osaka-c.ed.jp/nakatsu-y/,大阪府大阪市北区中津2-2-22,公立,共学校,支援学校【肢体不自由】,06-6372-8256,34.713274,135.497019,阪急宝塚線・神戸線「中津」北東500ｍ／大阪メトロ御堂筋線「中津」北200ｍ,支援学校【肢体不自由】,,,,,
305,なにわ高等支援学校,なにわこうとうしえんがっこう,https://www2.osaka-c.ed.jp/naniwa-ks/,大阪府大阪市浪速区木津川2-3-30,公立,共学校,支援学校【知的障がい（高等支援）】,06-6561-7361,34.659094,135.483921,JR環状線「芦原町駅」徒歩7分,支援学校【知的障がい（高等支援）】,,,,,
306,難波支援学校,なんばしえんがっこう,https://www.osaka-c.ed.jp/namba-s/,大阪府大阪市浪速区木津川2-3-30,公立,共学校,支援学校【知的障がい】,06-6562-2251,34.659094,135.483921,JR環状線「芦原橋」西600ｍ／南海汐見橋線「芦原橋」西200ｍ,支援学校【知的障がい】,,,,,
307,西浦支援学校,にしうらしえんがっこう,https://www.osaka-c.ed.jp/nishiura-s/,大阪府羽曳野市西浦2-1797,公立,共学校,支援学校【知的障がい】,072-957-0617,34.544472,135.605694,近鉄南大阪線「古市駅」南1．2㎞,支援学校【知的障がい】,,,,,
308,西淀川支援学校,にしよどがわしえんがっこう,https://www.osaka-c.ed.jp/nishiyodogawa-s/,大阪府大阪市西淀川区大和田2-5-77,公立,共学校,支援学校【肢体不自由】,06-6475-2560,34.703842,135.441798,阪神なんば線「福」北500ｍ,支援学校【肢体不自由】,,,,,
309,寝屋川支援学校,ねやがわしえんがっこう,https://www.osaka-c.ed.jp/neyagawa-y/,大阪府寝屋川市寝屋川公園2100,公立,共学校,支援学校【知的障がい】,072-824-1024,34.763413,135.655226,JR学研都市線「東寝屋川」北東約0．9ｋｍ・「星田」西約1．2ｋｍ／京阪電鉄「寝屋川市」から京阪バス「大谷町」下車西500ｍ,支援学校【知的障がい】,,,,,
310,羽曳野支援学校,はびきのしえんがっこう,https://www.osaka-c.ed.jp/habikino-y/,大阪府羽曳野市はびきの3-7-1,公立,共学校,支援学校【病弱】,072-958-5000,34.547948,135.589102,近鉄南大阪線「藤井寺」または「古市」下車　近鉄バスに乗車10分「府立医療センター」下車,支援学校【病弱】,,,,,
311,東大阪支援学校,ひがしおおさかしえんがっこう,https://www2.osaka-c.ed.jp/higashiosaka-y/,大阪府東大阪市中石切町3-11-27,公立,共学校,支援学校【肢体不自由・知肢併置】,072-984-8141,34.685119,135.656016,近鉄けいはんな線「新石切」北北西0．9ｋｍ／近鉄バス「芝」下車西南西0．7ｋｍ,支援学校【肢体不自由・知肢併置】,,,,,
312,東住吉支援学校,ひがしすみよししえんがっこう,https://www.osaka-c.ed.jp/higashisumiyoshi-s/,大阪府大阪市東住吉区矢田5-1-22,公立,共学校,支援学校【肢体不自由・知的障がい部門併置】,06-6608-9100,34.601969,135.52763,近鉄南大阪線「矢田」南西約500ｍ,支援学校【肢体不自由・知的障がい部門併置】,,,,,
313,東淀川支援学校,ひがしよどがわしえんがっこう,https://www.osaka-c.ed.jp/higashiyodogawa-s/,大阪府大阪市東淀川区東中島3-5-22,公立,共学校,支援学校【知的障がい】,06-6325-9011,34.731067,135.50505,JR線「新大阪」東口より徒歩10分／大阪メトロ御堂筋線「新大阪」徒歩10分／阪急「崇禅寺」徒歩8分,支援学校【知的障がい】,,,,,
314,枚方支援学校,ひらかたしえんがっこう,https://www.osaka-c.ed.jp/hirakata-s/,大阪府枚方市村野西町60-1,公立,共学校,支援学校【知的障がい】,072-805-2731,34.799731,135.664928,京阪交野線「村野」南約250ｍ,支援学校【知的障がい】,,,,,
315,平野支援学校,ひらのしえんがっこう,https://www.osaka-c.ed.jp/hirano-s/,大阪府大阪市平野区長吉川辺3-4-115,公立,共学校,支援学校【肢体不自由】,06-6707-6731,34.598861,135.576796,大阪メトロ谷町線「長原」南南東600ｍ／大阪メトロ谷町線「八尾南」北西約600ｍ,支援学校【肢体不自由】,,,,,
316,藤井寺支援学校,ふじいでらしえんがっこう,https://www.osaka-c.ed.jp/fujiidera-y/,大阪府藤井寺市川北2-5-23,公立,共学校,支援学校【肢体不自由】,072-973-1313,34.586743,135.61289,JR大和路線「柏原」西約1ｋｍ／近鉄道明寺線「柏原」西約1ｋｍ／近鉄大阪線「堅下」西約1．5ｋｍ,支援学校【肢体不自由】,,,,,
317,箕面支援学校,みのおしえんがっこう,https://www.osaka-c.ed.jp/minoo-y/,大阪府箕面市船場東3-15-1,公立,共学校,支援学校【肢体不自由・知肢併置】,072-728-1245,34.824858,135.496544,北大阪急行・大阪モノレール「千里中央」から阪急バス「新船場南橋」下車北東約800ｍ／阪急箕面線「箕面」から阪急バス「新船場北橋」下車東約650ｍ／阪急宝塚線「豊中」から阪急バス「新船場南橋」下車北東約800ｍ,支援学校【肢体不自由・知肢併置】,,,,,
318,むらの高等支援学校,むらのこうとうしえんがっこう,https://www.osaka-c.ed.jp/murano-ks/,大阪府枚方市村野西町60-1,公立,共学校,支援学校【知的障がい（高等支援）】,072-805-2327,34.799731,135.664928,京阪交野線「村野」南約250ｍ,支援学校【知的障がい（高等支援）】,,,,,
319,守口支援学校,もりぐちしえんがっこう,https://www.osaka-c.ed.jp/moriguchi-y/,大阪府守口市南寺方東通5-2-2,公立,共学校,支援学校【知的障がい】,06-6993-2810,34.720769,135.578981,京阪電車「守口市」から京阪バス「寺方東」下車南500ｍ／「南寺方東通り5丁目」下車北300ｍ,支援学校【知的障がい】,,,,,
320,八尾支援学校,やおしえんがっこう,https://www.osaka-c.ed.jp/yao-y/,大阪府八尾市上之島町南7-6,公立,共学校,支援学校【知的障がい】,072-923-4485,34.635753,135.627961,近鉄大阪線「河内山本」北東方面2ｋｍ／近鉄バス「上之島町」下車東200ｍ,支援学校【知的障がい】,,,,,
321,芦屋学園高等学校,あしやがくえんこうとうがっこう,http://www.ashiyajs.jp/,兵庫県芦屋市六麓荘町16-18,私立,共学校,普通科、国際文化科,0797-31-0666,34.755601,135.309433,JR「芦屋」・阪急「芦屋川」より無料スクールバス,普通科,国際文化科,,,,
322,関西学院高等部,かんせいがくいんこうとうぶ,http://www.kwansei.ac.jp/hs/,兵庫県西宮市上ｹ原一番町1-155,私立,共学校,普通科,0798-51-0975,34.769663,135.349581,阪急今津線「甲東園」下車バス5分･徒歩15分／｢仁川｣徒歩15分／JR｢西宮｣下車バス15分,普通科,,,,,
323,甲子園学院高等学校,こうしえんがくいんこうとうがっこう,http://www.koshiengakuin-h.ed.jp/index.html,兵庫県西宮市瓦林町4-25,私立,女子校,普通科,0798-65-6100,34.743897,135.36946,JR「甲子園口」北西徒歩7分／阪急「西宮北口」南東徒歩15分・阪急バス｢甲子園学院前｣下車,普通科,,,,,
324,神戸第一高等学校,こうべだいいちこうとうがっこう,http://www.kobedai1.ed.jp/,兵庫県神戸市中央区葦合町寺ｹ谷1,私立,共学校,普通科,078-242-4811,34.71116,135.19528,JR・阪急・阪神｢三宮｣から市営地下鉄｢新神戸駅｣徒歩10分,普通科,,,,,
325,甲陽学院高等学校,こうようがくいんこうとうがっこう,http://www.koyo.ac.jp/,兵庫県西宮市角石町3-138,私立,男子校,普通科,0798-73-3011,34.76016,135.319144,阪急電鉄｢甲陽園｣西へ徒歩20分 ,普通科,,,,,
326,三田松聖高等学校,さんだしょうせいこうとうがっこう,http://www.sandashosei.net/,兵庫県三田市四ﾂ辻1430,私立,共学校,普通科,079-568-1001,34.950175,135.159794,JR福知山線｢相野｣徒歩5分,普通科,,,,,
327,夙川学院高等学校,しゅくがわがくいんこうとうがっこう,https://www.sumashuku.jp/,兵庫県兵庫県神戸市兵庫区会下山町1-7-1,私立,共学校,普通科,078-578-7226,34.679607,135.16016,神戸高速線「新開地」駅乗り換え神戸電鉄「湊川」徒歩12分／神戸市営地下鉄「湊川公園」徒歩12分,普通科,,,,,
328,神港学園神港高等学校,しんこうがくえんこうとうがっこう,http://www.shinko.ed.jp/,兵庫県神戸市中央区山本通4-19-20,私立,共学校,普通科,078-241-3135,34.694442,135.183122,JR｢元町｣･阪神｢元町｣北徒歩10分／阪急｢三宮｣北西徒歩15分／地下鉄｢県庁前｣北徒歩5分,普通科,,,,,
329,園田学園高等学校,そのだがくえんこうとうがっこう,https://www.sonodagakuen.ed.jp/high-school,兵庫県尼崎市南塚口町1-24-16,私立,女子校,普通科,06-6428-2242,34.749114,135.414141,阪急神戸線｢塚口｣南徒歩8分／JR宝塚線｢塚口｣西徒歩16分,普通科,,,,,
330,灘高等学校,なだこうとうがっこう,http://www.nada.ac.jp/,兵庫県神戸市東灘区魚崎北町8-5-1,私立,男子校,普通科,078-411-7234,34.719172,135.268477,JR神戸線「住吉」東徒歩約10分／阪神本線｢魚崎｣北徒歩約10分／阪急神戸線｢岡本｣南西徒歩約25分,普通科,,,,,
331,仁川学院高等学校,にがわがくいんこうとうがっこう,http://www.nigawa.ac.jp/high/,兵庫県西宮市甲東園2-13-9,私立,共学校,普通科,0798-51-3621,34.770874,135.36106,阪急今津線｢仁川｣･｢甲東園｣徒歩6分,普通科,,,,,
332,雲雀丘学園高等学校,ひばりがおかこうとうがっこう,http://www.hibari.jp/,兵庫県宝塚市雲雀丘4-2-1,私立,共学校,普通科,072-759-1300,34.826765,135.402489,阪急宝塚線｢雲雀丘花屋敷｣西改札口から徒歩約3分／JR宝塚線｢川西池田｣徒歩約12分,普通科,,,,,
333,報徳学園高等学校,ほうとくがくえんこうとうがっこう,http://www.hotoku.ac.jp/,兵庫県西宮市上大市5-28-19,私立,男子校,普通科,0798-51-3021,34.769781,135.372112,阪急今津線｢甲東園｣徒歩20分,普通科,,,,,
334,武庫川女子大学附属高等学校,むこがわじょしだいがくふぞくこうとうがっこう,http://jhs.mukogawa-u.ac.jp/,兵庫県西宮市枝川町4-16,私立,女子校,普通科,0798-47-6436,34.712512,135.364034,阪神｢鳴尾・武庫川女子大前｣南東徒歩,普通科,,,,,
335,百合学院高等学校,ゆりがくいんこうとうがっこう,http://high.yuri-gakuin.ac.jp/,兵庫県尼崎市若王子2-18-2,私立,女子校,普通科,06-6491-6298,34.748692,135.436824,JR福知山線（JR宝塚線）｢塚口｣西徒歩18分,普通科,,,,,
336,大谷高等学校,おおたにこうとうがっこう,http://www.otani.ed.jp/syoukai/senior.html,京都府京都市東山区今熊野池田町12,私立,共学校,普通科,075-541-1312,34.984291,135.77163,JR・京阪｢東福寺｣徒歩5分／京阪｢七条｣徒歩10分／近鉄・地下鉄｢京都｣徒歩18分,普通科,,,,,
337,華頂女子高等学校,かちょうじょしこうとうがっこう,http://www.kacho.ed.jp/,京都府京都市東山区林下町3-456,私立,女子校,普通科,075-541-0391,35.006811,135.779851,地下鉄｢東山｣徒歩4分/京阪本線｢三条｣徒歩8分/阪急京都線｢河原町｣徒歩13分／市バス｢知恩院前｣下車東約150m,普通科,,,,,
338,京都外大西高等学校,きょうとがいだいにしこうとうがっこう,http://www.kufs.ac.jp/nishiko/,京都府京都市右京区山ノ内苗町37,私立,共学校,普通科,075-321-0712,35.004938,135.718435,阪急｢西院｣西徒歩14分／地下鉄東西線｢太秦天神川｣南東徒歩10分,普通科,,,,,
339,京都芸術高等学校,きょうとげいじゅつこうとうがっこう,http://www.kyoto-geikou.ed.jp/,京都府宇治市五ヶ庄西浦6-2,私立,共学校,美術科,0774-32-7012,34.91312,135.804472,JR奈良線･京阪宇治線｢黄檗駅｣すぐ,美術科,,,,,
340,京都廣学館高等学校,きょうとこうがくかんこうとうがっこう,http://kyoto-kogakkan.mkg.ac.jp/,京都府京都府相楽郡精華町下狛中垣内48,私立,共学校,普通科,0774-93-0518,34.778471,135.787168,近鉄｢狛田｣徒歩5分／JR｢下狛｣徒歩3分,普通科,,,,,
341,京都光華高等学校,きょうとこうかこうとうがっこう,http://hs.koka.ac.jp/,京都府京都市右京区西京極野田町39,私立,女子校,普通科、国際挑戦科,075-325-5223,34.99543,135.718179,阪急｢西京極｣徒歩5分,普通科,国際挑戦科,,,,
342,京都産業大学附属高等学校,きょうとさんぎょうだいがくふぞくこうとうがっこう,http://www.jsh.kyoto-su.ac.jp/,京都府京都市下京区中堂寺命婦町1-10,私立,共学校,普通科,075-279-0001,34.99822,135.744014,JR｢丹波口｣徒歩約4分／阪急｢大宮｣徒歩約10分／京福｢四条大宮｣徒歩約10分,普通科,,,,,
343,京都翔英高等学校,きょうとしょうえいこうとうがっこう,http://www.kyoto-shoei.ac.jp/,京都府宇治市菟道大垣内33-10,私立,共学校,普通科、看護科,0774-23-2238,34.896342,135.811644,ＪＲ｢宇治｣徒歩13分程度／京阪｢宇治｣「三室戸」徒歩5分程度,普通科,看護科,,,,
344,京都女子高等学校,きょうとじょしこうとうがっこう,https://kgs.ed.jp/high_school,京都府京都市東山区今熊野北日吉町17,私立,女子校,普通科、ウィステリア科,075-531-7538,34.99014,135.777167,阪急京都線「河原町」市バス「東山七条」徒歩5分／JR「京都」　プリンセスラインバス「京都女子中高前」,普通科,ウィステリア科,,,,
345,京都精華女子高等学校,きょうとせいかじょしこうとうがっこう,http://www.k-seika.ed.jp/,京都府京都市左京区吉田河原町5-1,私立,共学校,普通科、美術科,075-771-4181,35.024753,135.773076,京阪「出町柳｣徒歩5分／JR｢京都｣から京都市バス｢荒神口｣下車,普通科,美術科,,,,
346,京都成章高等学校,きょうとせいしょうこうとうがっこう,http://www.kyoto-econ.ac.jp/seisho/,京都府京都市西京区大枝沓掛町26-11,私立,共学校,普通科,075-332-4830,34.98139,135.654515,JR｢桂川｣・阪急｢桂｣からバス,普通科,,,,,
347,京都先端科学大附属高等学校,きょうとせんたんかがくだいふぞくこうとうがっこう,http://shs-kyotogakuen.com/,京都府京都市右京区花園寺ノ中町8,私立,共学校,普通科,075-461-5105,35.025405,135.723029,阪急｢西院｣･京阪｢三条｣からバス｢等持院南町｣下車,普通科,,,,,
348,京都橘高等学校,きょうとたちばなこうとうがっこう,http://www.tachibana-hs.jp/,京都府京都市伏見区桃山町伊賀50,私立,共学校,普通科,075-623-0066,34.932009,135.778566,京阪宇治線｢桃山南口｣西徒歩5分／JR奈良線｢桃山｣東徒歩10分／近鉄京都線｢桃山御陵前｣東徒歩15分,普通科,,,,,
349,京都西山高等学校,きょうとにしやまこうとうがっこう,http://www.kyotonishiyama.ed.jp/,京都府向日市寺戸町西野辺25,私立,共学校,普通科,075-934-2480,34.948532,135.701891,阪急京都線｢東向日｣徒歩5分／JR｢向日町｣徒歩12分,普通科,,,,,
350,京都文教高等学校,きょうとぶんきょうこうとうがっこう,http://www.kbu.ac.jp/kbghs/,京都府京都市左京区岡崎円勝寺町5,私立,共学校,普通科,075-771-6155,35.01088,135.779686,地下鉄東西線｢東山｣北徒歩３分／京阪｢三条｣東徒歩10分,普通科,,,,,
351,京都明徳高等学校,きょうとめいとくこうとうがっこう,http://www.meitoku.ac.jp/,京都府京都市西京区大枝東長町3-8,私立,共学校,普通科、専門学科（マネジメント系）,075-331-3361,34.969477,135.681856,阪急｢桂｣よりバス｢明徳高校前｣,普通科,専門学科（マネジメント系）,,,,
352,京都両洋高等学校,きょうとりょうようこうとうがっこう,http://www.kyoto-ryoyo.ed.jp/,京都府京都市中京区壬生上大竹町13,私立,共学校,普通科,075-841-2025,35.007859,135.733482,阪急「西院」北徒歩8分/地下鉄｢西大路御池｣南徒歩約5分／JR｢京都二条｣西徒歩約12分,普通科,,,,,
353,同志社高等学校,どうししゃこうとうがっこう,http://www.js.doshisha.ac.jp/high/,京都府京都市左京区岩倉大鷺町89,私立,共学校,普通科,075-781-7121,35.06768,135.785909,地下鉄烏丸線｢国際会館｣2番出口すぐ／叡山電車｢八幡前｣徒歩7分,普通科,,,,,
354,同志社国際高等学校,どうししゃこくさいこうとうがっこう,http://www.intnl.doshisha.ac.jp/,京都府京田辺市多々羅都谷60-1,私立,共学校,普通科,0774-65-8911,34.802148,135.772908,JR学園都市線｢同志社前｣徒歩10分/近鉄京都線｢興戸｣徒歩15分,普通科,,,,,
355,同志社女子高等学校,どうししゃじょしこうとうがっこう,http://www.girls.doshisha.ac.jp/,京都府京都市上京区今出川通寺町西入,私立,女子校,普通科,075-251-4305,35.029654,135.763572,地下鉄｢今出川｣徒歩7分／京阪｢出町柳｣徒歩12分／京都市バス｢同志社前｣下車徒歩1分,普通科,,,,,
356,花園高等学校,はなぞのこうとうがっこう,http://www.kyoto-hanazono-h.ed.jp/index.html,京都府京都市右京区花園木辻北町1,私立,共学校,普通科,075-463-5221,35.021772,135.722715,JR嵯峨野線｢花園｣徒歩7分／京都市バス「木辻南町」徒歩2分,普通科,,,,,
357,平安女学院高等学校,へいあんじょがくいんこうとうがっこう,http://www.jh.heian.ac.jp/,京都府京都市上京区烏丸通下立売西入,私立,女子校,普通科、単位制,075-414-8111,35.021124,135.732794,地下鉄烏丸線｢丸田町｣北徒歩3分／市バス｢烏丸丸田町｣徒歩約5分,普通科,単位制,,,,
358,洛南高等学校,らくなんこうとうがっこう,http://www.rakunan-h.ed.jp/,京都府京都市南区壬生通八条下ル東寺町559番地,私立,共学校,普通科,075-681-6511,34.982773,135.74683,JR京都｢八条口｣徒歩13分／近鉄｢東寺｣徒歩10分／京都市バス｢東寺東門｣下車徒歩3分,普通科,,,,,
359,洛陽総合高等学校,らくようそうごうこうとうがっこう,http://www.rakuyo.ed.jp/,京都府京都市中京区西ノ京春日町8,私立,共学校,総合学科,075-802-0394,35.01771,135.727709,JR嵯峨野線｢円町｣西3分／地下鉄東西線｢西大路御池｣北西8分,総合学科,,,,,
360,立命館宇治高等学校,りつめいかんうじこうとうがっこう,https://www.ritsumei.ac.jp/uji/,京都府宇治市広野町八軒屋谷33-1,私立,共学校,普通科、国際科,0774-41-3000,34.868487,135.797209,近鉄｢大久保｣バス10分／JR｢新田｣バス10分／JR｢宇治｣バス15分・京阪｢宇治｣バス20分,普通科,国際科,,,,
361,立命館高等学校,りつめいかんこうとうがっこう,http://www.ritsumei.ac.jp/fkc/,京都府京都府長岡京市調子1-1-1,私立,共学校,普通科,075-323-7111,34.911833,135.693544,阪急「西山天王山」8分／ＪＲ「長岡京」15分／京阪淀バス12分,普通科,,,,,
362,龍谷大学付属平安高等学校,りゅうこくだいがくふぞくへいあんこうとうがっこう,http://www.heian.ed.jp/,京都府京都市下京区御器屋町30,私立,共学校,普通科,075-361-4231,34.989971,135.748175,JRバス｢七条大宮｣下車／JR「丹波口」徒歩10分／「梅小路京都西」徒歩5分,普通科,,,,,
363,育英西高等学校,いくえいにしこうとうがっこう,http://www.ikuei.ed.jp/ikunishi/,奈良県奈良市三松4-637-1,私立,女子校,普通科,0742-47-0688,34.702933,135.72819,近鉄奈良線｢富雄｣徒歩20分またはバス｢二名｣下車徒歩7分,普通科,,,,,
364,橿原学院高等学校,かしはらがくいんこうとうがっこう,http://www.kashigaku.ed.jp/,奈良県橿原市久米町222,私立,共学校,普通科、美術科,0744-27-3242,34.483649,135.786113,近鉄｢橿原神宮前｣徒歩10分／近鉄「橿原神宮西口」徒歩7分,普通科,美術科,,,,
365,智辯学園高等学校,ちべんがくえんこうとうがっこう,https://www.chiben.ac.jp/gojo/,奈良県五條市野原中4-1-51,私立,共学校,普通科,0747-22-3191,34.340829,135.706014,JR｢五条｣徒歩30分,普通科,,,,,
366,帝塚山高等学校,てづかやまこうとうがっこう,http://www.tezukayama-h.ed.jp/,奈良県奈良市学園南3-1-3,私立,共学校,普通科,0742-41-4685,34.695647,135.750396,近鉄｢学園前｣徒歩1分,普通科,,,,,
367,天理高等学校,てんりこうとうがっこうだいいち,http://www.tenri-h.ed.jp/,奈良県天理市杣之内町1260,私立,共学校,普通科、定時制【普通科】,0743-63-7691,34.593312,135.842844,JR･近鉄｢天理｣徒歩18分,普通科,定時制【普通科】,,,,
368,奈良育英高等学校,ならいくえいこうとうがっこう,https://www.ikuei.ed.jp/ikuei-jh/,奈良県奈良市法蓮町1000,私立,共学校,普通科,0742-26-2845,34.690705,135.824598,近鉄｢奈良｣徒歩10分,普通科,,,,,
369,奈良女子高等学校,ならじょしこうとうがっこう,http://www.shirafuji.ac.jp/high/,奈良県奈良市三条宮前町3-6,私立,女子校,普通科,0742-33-3601,34.681303,135.815128,近鉄｢新大宮｣南東600m／ＪＲ「奈良」西400m,普通科,,,,,
370,奈良大学附属高等学校,ならだいがくふぞくこうとうがっこう,http://www.nara-u-h.ed.jp/,奈良県奈良市秋篠町50,私立,共学校,普通科,0742-41-8840,34.707951,135.78076,近鉄京都線｢平城｣徒歩15分,普通科,,,,,
371,奈良文化高等学校,ならぶんかこうとうがっこう,http://www.narabunka.ed.jp/,奈良県大和高田市東中127,私立,女子校,普通科、衛生看護科,0745-22-8315,34.49964,135.729485,｢近鉄高田市｣｢近鉄大和高田｣｢JR高田｣からバス｢奈良文化高校｣行きに乗車,普通科,衛生看護科,,,,
372,西大和学園高等学校,にしやまとがくえんこうとうがっこう,https://www.nishiyamato.ed.jp/,奈良県北葛城郡河合町大字薬井295,私立,共学校,普通科,0745-73-6565,34.58756,135.714243,JR大和路線･近鉄生駒線｢王寺｣･近鉄田原本線｢新王寺｣徒歩約18分･奈良交通バス｢星和台1丁目｣下車すぐ／近鉄大阪線｢五位堂｣から奈良交通バス｢星和台1丁目｣下車すぐ,普通科,,,,,
373,開智高等学校,かいちこうとうがっこう,http://www.kaichi.ed.jp/,和歌山県和歌山市直川113-2,私立,共学校,普通科,073-461-8080,34.259554,135.211217,JR阪和線｢六十谷｣徒歩5分,普通科,,,,,
374,近畿大学附属和歌山高等学校,きんきだいだくふぞくわかやまこうとうがっこう,http://www.hwaka.kindai.ac.jp/,和歌山県和歌山市善明寺516,私立,共学校,普通科,073-452-1161,34.268942,135.185051,JR阪和線｢和歌山｣･南海本線｢和歌山市｣から和歌山バス｢近畿大学附属和歌山校｣下車すぐ,普通科,,,,,
375,高野山高等学校,こうやさんこうとうがっこう,http://www.koyasan-h.ed.jp/,和歌山県伊都郡高野町高野山212,私立,共学校,普通科、宗教科,0736-56-2204,34.21762,135.577151,南海高野線｢極楽橋｣からケーブルカー｢高野山｣下車,普通科,宗教科,,,,
376,智辯学園和歌山高等学校,ちべんがくえんわかやまこうとうがっこう,http://www.chiben.ac.jp/wakayama/,和歌山県和歌山市冬野2066-1,私立,共学校,普通科,073-479-2811,34.174294,135.212647,JR紀勢本線「黒江」徒歩10分,普通科,,,,,
377,初芝橋本高等学校,はつしぱはしもとこうとうがっこう,http://www.hatsushiba.ed.jp/hatsuhashi/,和歌山県橋本市小峰台2-6-1,私立,共学校,普通科,0736-37-5600,34.352949,135.630462,南海高野線｢林間田園都市｣から南海りんかいバス「初芝橋本高校前」下車,普通科,,,,,
378,和歌山信愛高等学校,わかやましんあいこうとうがっこう,http://www.shin-ai.ac.jp/,和歌山県和歌山市屋形町2-23,私立,女子校,普通科,073-424-1141,34.228708,135.178715,JR阪和線｢和歌山｣徒歩12分またはバス／南海｢和歌山市｣からバス｢三木町｣｢三木町新通｣下車,普通科,,,,,
379,綾羽高等学校,あやはこうとうがっこう,https://www.ayaha.ed.jp/,滋賀県草津市西渋川1-18-1,私立,共学校,普通科、定時制【食物調理科・普通科】,077-563-3435,35.026948,135.959583,JR｢草津｣西口から徒歩約7分,普通科,定時制【食物調理科・普通科】,,,,
380,青山高等学校,あおやまこうとうがっこう,http://aoyama-h.ed.jp/,三重県津市白山町八対野2739,私立,共学校,普通科,059-262-4321,34.65431,136.305107,近鉄大阪線｢榊原温泉口｣からタクシー10分,普通科,,,,,
381,桜丘高等学校,さくらがおかこうとうがっこう,http://sakura-gaoka.ed.jp/,三重県伊賀市下神戸2756,私立,共学校,普通科,0595-38-1201,34.684005,136.180238,近鉄大阪線｢青山町｣からタクシーで3分,普通科,,,,,
